{
  "version": 0.6,
  "generator": "Overpass API 0.7.60 f4c14d41",
  "osm3s": {
    "timestamp_osm_base": "2023-05-17T11:45:24Z",
    "copyright": "The data included in this document is from www.openstreetmap.org. The data is made available under ODbL."
  },
  "elements": [
    {
      "type": "node",
      "id": 204761338,
      "lat": 51.0668514,
      "lon": 3.7033213,
      "tags": {
        "addr:housenumber": "43",
        "addr:postcode": "9000",
        "addr:street": "Jozef Guislainstraat",
        "email": "info@museumdrguislain.be",
        "fee": "yes",
        "name": "Museum Dr. Guislain",
        "opening_hours": "Tu-Fr 09:00-17:00; Sa-Su 13:00-17:00",
        "phone": "+32 9 398 69 50",
        "toilets:wheelchair": "yes",
        "tourism": "museum",
        "website": "http://www.museumdrguislain.be",
        "wheelchair": "yes",
        "wikidata": "Q2934898",
        "wikimedia_commons": "Category:Museum_Dr_Guislain"
      }
    },
    {
      "type": "node",
      "id": 497395798,
      "lat": 51.0598509,
      "lon": 3.7287124,
      "tags": {
        "alt_name": "Minnemeers NT2",
        "amenity": "theatre",
        "name": "NTGent Minnemeers",
        "website": "https://www.ntgent.be/"
      }
    },
    {
      "type": "node",
      "id": 497396025,
      "lat": 51.0612281,
      "lon": 3.7342868,
      "tags": {
        "amenity": "theatre",
        "name": "De Centrale",
        "website": "http://www.decentrale.be/"
      }
    },
    {
      "type": "node",
      "id": 602681357,
      "lat": 51.0537291,
      "lon": 3.7215956,
      "tags": {
        "amenity": "cinema",
        "check_date": "2022-12-04",
        "name": "Sphinx",
        "payment:visa": "yes",
        "phone": "+32 9 225 60 86",
        "toilets:wheelchair": "no",
        "website": "https://www.sphinx-cinema.be/",
        "wheelchair": "no",
        "wikidata": "Q37940563"
      }
    },
    {
      "type": "node",
      "id": 717698375,
      "lat": 51.0554405,
      "lon": 3.7172867,
      "tags": {
        "email": "schoolvantoen@outlook.be",
        "fee": "no",
        "name": "De school van toen",
        "opening_hours": "Mo-Fr 09:00-12:00,14:00-16:00; We 09:00-12:00",
        "tourism": "museum",
        "wikidata": "Q2248967",
        "wikipedia": "nl:De School van Toen"
      }
    },
    {
      "type": "node",
      "id": 1628067379,
      "lat": 51.0489042,
      "lon": 3.7337981,
      "tags": {
        "addr:housenumber": "63",
        "addr:street": "Sint-Annaplein",
        "amenity": "cinema",
        "email": "info@studioskoop.be",
        "name": "Studio Skoop",
        "phone": "+32 9 225 08 45",
        "website": "http://www.studioskoop.be/",
        "wikidata": "Q37940575"
      }
    },
    {
      "type": "node",
      "id": 2362296699,
      "lat": 51.0516888,
      "lon": 3.7319959,
      "tags": {
        "addr:city": "Gent",
        "addr:housenumber": "114",
        "addr:postcode": "9000",
        "addr:street": "Lange Boomgaardstraat",
        "alt_name": "Sint-Bavo",
        "amenity": "theatre",
        "name": "Groenzaal"
      }
    },
    {
      "type": "node",
      "id": 2365493578,
      "lat": 51.0540032,
      "lon": 3.7365072,
      "tags": {
        "name": "Museum voor Stenen Voorwerpen",
        "tourism": "museum",
        "wheelchair": "no",
        "wikidata": "Q2195107"
      }
    },
    {
      "type": "node",
      "id": 2432476825,
      "lat": 51.0539124,
      "lon": 3.7263231,
      "tags": {
        "amenity": "theatre",
        "name": "Miryzaal"
      }
    },
    {
      "type": "node",
      "id": 2545624182,
      "lat": 51.0595418,
      "lon": 3.7324094,
      "tags": {
        "addr:housenumber": "50",
        "addr:street": "Blekerijstraat",
        "amenity": "theatre",
        "name": "Kopergietery",
        "website": "http://www.kopergietery.be/",
        "wikidata": "Q4832513"
      }
    },
    {
      "type": "node",
      "id": 2545639151,
      "lat": 51.0633212,
      "lon": 3.7118666,
      "tags": {
        "addr:housenumber": "22",
        "addr:street": "Vlotstraat",
        "amenity": "theatre",
        "name": "Kopergietery",
        "website": "http://www.kopergietery.be/",
        "wikidata": "Q33100615"
      }
    },
    {
      "type": "node",
      "id": 2545647022,
      "lat": 51.0585987,
      "lon": 3.7013081,
      "tags": {
        "addr:housenumber": "31",
        "addr:street": "Haspelstraat",
        "amenity": "theatre",
        "name": "bij' De Vieze Gasten",
        "website": "https://www.deviezegasten.org/",
        "wikidata": "Q2490855"
      }
    },
    {
      "type": "node",
      "id": 2545662298,
      "lat": 51.0614495,
      "lon": 3.731975,
      "tags": {
        "addr:housenumber": "24-28",
        "addr:street": "Bomastraat",
        "amenity": "theatre",
        "name": "Logos Foundation"
      }
    },
    {
      "type": "node",
      "id": 2626418258,
      "lat": 51.0495326,
      "lon": 3.7219135,
      "tags": {
        "OnroerendErfgoed:criteria": "M",
        "addr:housenumber": "3;5",
        "addr:street": "Schouwburgstraat",
        "amenity": "theatre",
        "description": "Koninklijke Opera",
        "heritage": "4",
        "heritage:operator": "OnroerendErfgoed",
        "heritage:website": "https://inventaris.onroerenderfgoed.be/dibe/relict/25727",
        "name": "Opera Vlaanderen",
        "old_name": "Vlaamse Opera",
        "operator": "Opera Vlaanderen Ballet Vlaanderen",
        "ref:OnroerendErfgoed": "25727",
        "theatre:genre": "opera",
        "website": "https://operaballet.be/",
        "wikidata": "Q1881411",
        "wikipedia": "nl:Koninklijke Opera (Gent)"
      }
    },
    {
      "type": "node",
      "id": 2627642121,
      "lat": 51.0585842,
      "lon": 3.7223293,
      "tags": {
        "OnroerendErfgoed:criteria": "M",
        "addr:street": "Vrouwebroersstraat",
        "description": "Pand of Klooster en Kerk van de Geschoeide Karmelieten",
        "heritage": "4",
        "heritage:operator": "OnroerendErfgoed",
        "heritage:website": "https://inventaris.onroerenderfgoed.be/dibe/relict/26093",
        "historic": "monastery",
        "name": "Caermersklooster",
        "ref:OnroerendErfgoed": "26093",
        "tourism": "museum",
        "wikidata": "Q1858032",
        "wikimedia_commons": "File:Klooster_Geschoeide_Karmelieten.jpg"
      }
    },
    {
      "type": "node",
      "id": 2964966885,
      "lat": 51.0564784,
      "lon": 3.7325583,
      "tags": {
        "name": "Quai Des Arts",
        "tourism": "gallery"
      }
    },
    {
      "type": "node",
      "id": 5241838274,
      "lat": 51.0496035,
      "lon": 3.7232222,
      "tags": {
        "amenity": "theatre",
        "name": "Handelsbeurs Concertzaal",
        "theatre:genre": "philharmonic"
      }
    },
    {
      "type": "node",
      "id": 5241900064,
      "lat": 51.0446803,
      "lon": 3.7190525,
      "tags": {
        "amenity": "theatre",
        "theatre:genre": "philharmonic"
      }
    },
    {
      "type": "node",
      "id": 6032010858,
      "lat": 51.068526,
      "lon": 3.7986102,
      "tags": {
        "historic": "archaeological_site",
        "name": "Gallische Hoeve",
        "tourism": "museum",
        "website": "https://www.gallischehoeve.be/"
      }
    },
    {
      "type": "node",
      "id": 6613025400,
      "lat": 51.056428,
      "lon": 3.7420361,
      "tags": {
        "amenity": "cinema",
        "name": "Sexy World"
      }
    },
    {
      "type": "node",
      "id": 6613025599,
      "lat": 51.0535412,
      "lon": 3.7443113,
      "tags": {
        "addr:housenumber": "Dendermondsesteenweg 163;165",
        "addr:street": "Dendermondsesteenweg",
        "amenity": "theatre",
        "email": "info@scalaplatform.be",
        "name": "Scala",
        "operator": "Theaterplatform Gent vzw",
        "phone": "+32 9 228 87 20",
        "website": "https://www.scalaplatform.be",
        "wikidata": "Q37940479"
      }
    },
    {
      "type": "node",
      "id": 7055244658,
      "lat": 51.068004,
      "lon": 3.7169125,
      "tags": {
        "amenity": "theatre",
        "name": "Theater de WAANzin",
        "wikidata": "Q33100329"
      }
    },
    {
      "type": "node",
      "id": 7637345774,
      "lat": 51.0359404,
      "lon": 3.7232481,
      "tags": {
        "addr:housenumber": "35",
        "addr:street": "Karel Lodewijk Ledeganckstraat",
        "email": "info.gum@ugent.be",
        "fee": "yes",
        "name": "Gents Universiteitsmuseum",
        "name:en": "Ghent University Museum",
        "name:fr": "Musée de l’Université de Gand",
        "opening_hours": "Mo, Tu, Th, Fr 09:30-17:30; Sa-Su, PH 10:00-18:00; We off",
        "operator": "Universtiteit Gent",
        "phone": "+32 9 264 49 30",
        "short_name": "GUM",
        "subject": "science",
        "tourism": "museum",
        "website": "https://www.gum.gent",
        "wikidata": "Q100263681"
      }
    },
    {
      "type": "node",
      "id": 7986803468,
      "lat": 51.0481106,
      "lon": 3.7321395,
      "tags": {
        "amenity": "theatre",
        "name": "Capitole",
        "wikidata": "Q37940441",
        "wikipedia": "nl:Capitole"
      }
    },
    {
      "type": "node",
      "id": 9208730518,
      "lat": 51.0589747,
      "lon": 3.7221235,
      "tags": {
        "addr:housenumber": "14",
        "addr:street": "Lange Steenstraat",
        "amenity": "cinema",
        "name": "ArtCinema OFFoff",
        "screen": "1",
        "website": "https://offoff.be/"
      }
    },
    {
      "type": "node",
      "id": 9208745503,
      "lat": 51.0587825,
      "lon": 3.7217775,
      "tags": {
        "addr:city": "Gent",
        "addr:housenumber": "14",
        "addr:postcode": "9000",
        "addr:street": "Lange Steenstraat",
        "email": "info@kunsthal.gent",
        "museum": "art",
        "name": "Kunsthal Gent",
        "opening_hours": "Sa-Su 11:00-18:00",
        "tourism": "museum",
        "website": "https://kunsthal.gent/"
      }
    },
    {
      "type": "node",
      "id": 9228627223,
      "lat": 51.0744781,
      "lon": 3.7724653,
      "tags": {
        "amenity": "arts_centre",
        "name": "Muziekcentrum Goedleven"
      }
    },
    {
      "type": "node",
      "id": 9762327914,
      "lat": 50.9943388,
      "lon": 3.8037908,
      "tags": {
        "amenity": "arts_centre",
        "fee": "yes",
        "name": "Het Ovenveld",
        "opening_hours": "Mo,Th 08:00-11:45; Tu 14:00-18:45; We 13:30-16:45; Fr 08:00-12:45",
        "operator": "Melle",
        "website": "https://www.melle.be/gemeentelijk-atelier-voor-beeldende-kunsten-het-ovenveld"
      }
    },
    {
      "type": "node",
      "id": 9991428817,
      "lat": 51.0472825,
      "lon": 3.7280131,
      "tags": {
        "addr:housenumber": "23",
        "addr:postcode": "9000",
        "addr:street": "Sint-Pietersnieuwstraat",
        "amenity": "theatre",
        "email": "info@viernulvier.gent",
        "opening_hours": "Mo-Sa 09:00-00:00; Su 00:00-24:00",
        "website": "http://www.viernulvier.gent"
      }
    },
    {
      "type": "node",
      "id": 10139550221,
      "lat": 51.0680823,
      "lon": 3.7226336,
      "tags": {
        "amenity": "cinema",
        "name": "Hoff Open Air Cinema"
      }
    },
    {
      "type": "node",
      "id": 10167536773,
      "lat": 51.0197549,
      "lon": 3.7623078,
      "tags": {
        "amenity": "theatre",
        "email": "mail@krakeel.be",
        "name": "Krakeel",
        "phone": "+32 495 60 44 84",
        "website": "http://www.krakeel.be/"
      }
    },
    {
      "type": "node",
      "id": 10815348842,
      "lat": 51.0516092,
      "lon": 3.7249154,
      "tags": {
        "amenity": "cinema",
        "contact:facebook": "https://www.facebook.com/profile.php?id=100063540072597",
        "name": "Filmplateau",
        "website": "http://film-plateau.be/"
      }
    },
    {
      "type": "node",
      "id": 10861076263,
      "lat": 51.0657443,
      "lon": 3.7307508,
      "tags": {
        "amenity": "arts_centre",
        "contact:facebook": "https://www.facebook.com/victoriadeluxe",
        "email": "info@victoriadeluxe.be",
        "name": "Victoria Deluxe",
        "phone": "+32 9 324 80 26",
        "website": "https://www.victoriadeluxe.be/"
      }
    },
    {
      "type": "node",
      "id": 10861076264,
      "lat": 51.0657352,
      "lon": 3.7305734,
      "tags": {
        "amenity": "arts_centre",
        "contact:facebook": "https://www.facebook.com/compagniececilia/",
        "contact:instagram": "https://www.instagram.com/compagniececilia/",
        "email": "info@compagnie-cecilia.be",
        "name": "Compagnie Cecilia",
        "office": "company",
        "phone": "+32 9 223 53 82",
        "website": "https://compagnie-cecilia.be/"
      }
    },
    {
      "type": "node",
      "id": 10861121201,
      "lat": 51.0655667,
      "lon": 3.7308561,
      "tags": {
        "amenity": "arts_centre",
        "contact:facebook": "https://www.facebook.com/aifoon",
        "email": "info@aifoon.org",
        "mobile": "+32 494 54 43 91",
        "name": "Aifoon",
        "website": "https://aifoon.org/"
      }
    },
    {
      "type": "node",
      "id": 10861121202,
      "lat": 51.0655602,
      "lon": 3.7305672,
      "tags": {
        "amenity": "arts_centre",
        "email": "info@circuscentrum.be",
        "name": "Vlaams Centrum voor Circuskunsten vzw",
        "phone": "+32 9 233 85 89",
        "website": "https://www.circuscentrum.be/circuscentrum"
      }
    },
    {
      "type": "node",
      "id": 10861124500,
      "lat": 51.0657482,
      "lon": 3.7309138,
      "tags": {
        "amenity": "arts_centre",
        "name": "Miramiro",
        "website": "https://miramiro.be/"
      }
    },
    {
      "type": "way",
      "id": 83513754,
      "nodes": [
        2385209675,
        9349829903,
        9349829901,
        9349829902,
        9349829900,
        9349829906,
        9349829905,
        9349829904,
        9349829907,
        9349829910,
        9349829909,
        9349829908,
        9349829911,
        2385209679,
        9349829912,
        9349829913,
        9349829915,
        9349829914,
        7818073463,
        972458500,
        7840345109,
        7840345108,
        7840345105,
        7840345104,
        9349829891,
        9349829893,
        7840345102,
        9349829892,
        9349829890,
        7840345103,
        7840345106,
        7840345107,
        7840345110,
        8592765548,
        972458663,
        4757680240,
        972458561,
        972458452,
        7840345100,
        4757680243,
        7840345101,
        9349829889,
        9349829888,
        9349829887,
        9349829886,
        9349829885,
        9349829884,
        8283718228,
        6159551112,
        6159551111,
        6159551108,
        972458640,
        8144032045,
        6159551107,
        9349829880,
        9349829881,
        8144032053,
        8144032043,
        9349829883,
        9349829882,
        972458553,
        2724028791,
        9349829874,
        9349829877,
        9349829876,
        9349829875,
        9349829878,
        9349829879,
        8144032056,
        972458443,
        972458627,
        9349829873,
        9349829872,
        9349829871,
        9349829870,
        972458489,
        9349829869,
        9349829868,
        9349829867,
        9349829858,
        9349829866,
        9349829864,
        9349829865,
        9349829860,
        9349829861,
        9349829862,
        9349829863,
        9349829859,
        9349829857,
        972458634,
        972458541,
        4757680257,
        4757680256,
        972458535,
        972458670,
        4757680255,
        4757680254,
        972458665,
        972458583,
        4757680253,
        4757680251,
        4757680252,
        972458645,
        9349829896,
        9349829897,
        9349829894,
        9349829895,
        972458589,
        4757680249,
        4757680248,
        4757680250,
        972458533,
        7818073462,
        972458450,
        972458675,
        2384954017,
        2384954014,
        2384954009,
        2384954008,
        2384954007,
        2384954006,
        2384954005,
        2384954004,
        2384954001,
        2384953997,
        2384953995,
        2384953991,
        2384953986,
        2384953983,
        2384953978,
        972458607,
        9349834121,
        9349834122,
        9349834123,
        9349834120,
        2385209673,
        2385209665,
        2385209661,
        2385209667,
        2385209671,
        9349834118,
        9349834119,
        9349829916,
        9349834117,
        2385209681,
        2385209683,
        2385209686,
        9349829899,
        9349829898,
        2385209675
      ],
      "tags": {
        "addr:city": "Gent",
        "addr:housenumber": "1",
        "addr:postcode": "9051",
        "addr:street": "Maaltekouter",
        "amenity": "conference_centre",
        "loc_name": "Expo;De Expo",
        "name": "Flanders Expo",
        "phone": "+32 9 241 92 11",
        "website": "https://www.flandersexpo.be/",
        "wikidata": "Q2286053",
        "wikipedia": "nl:Flanders Expo"
      }
    },
    {
      "type": "way",
      "id": 97716994,
      "nodes": [
        1131263174,
        1131263171,
        4743523838,
        1949557487,
        1215383072,
        1949557483,
        1215383081,
        1949557486,
        1215383086,
        1949557513,
        1215383090,
        1949557488,
        1215383093,
        1949557514,
        1215383096,
        1949557481,
        4743523839,
        1131236844,
        1131236841,
        1131236863,
        1131236859,
        4743523840,
        1131236861,
        1131236866,
        8564257486,
        1131236842,
        1131236853,
        1131236865,
        1131236868,
        4743523836,
        4743523837,
        4743523834,
        4743523833,
        4743523835,
        1131263178,
        1131263177,
        1131263174
      ],
      "tags": {
        "addr:city": "Gent",
        "addr:housenumber": "7",
        "addr:street": "Bijlokekaai",
        "amenity": "arts_centre",
        "building": "yes",
        "name": "Muziekcentrum De Bijloke",
        "wikidata": "Q2610931"
      }
    },
    {
      "type": "way",
      "id": 105533772,
      "nodes": [
        4743523828,
        4743523827,
        4180814120,
        1215382822,
        4180814118,
        4180814119,
        4180814117,
        4180814116,
        1882828877,
        1215382825,
        1215382836,
        4743523828
      ],
      "tags": {
        "building": "yes",
        "email": "info@stamgent.be",
        "name": "Stadsmuseum Gent",
        "name:de": "Stadtmuseum Gent",
        "opening_hours": "Mo, Tu, Th, Fr 09:00-17:00; Sa-Su,PH 10:00-18:00; We off",
        "phone": "+32 9 267 14 00",
        "short_name": "STAM",
        "source": "Bing",
        "tourism": "museum",
        "website": "https://stamgent.be/",
        "wheelchair": "yes",
        "wikidata": "Q980285"
      }
    },
    {
      "type": "way",
      "id": 108043033,
      "nodes": [
        1240339982,
        2526655523,
        2526655524,
        2526655525,
        5096286580,
        2526655527,
        2526655528,
        5096286581,
        2526655529,
        2526655531,
        5096286582,
        2526655532,
        5096286583,
        2526655533,
        2526655537,
        5096286584,
        2526655540,
        5096286585,
        2526655543,
        5096286586,
        2526655545,
        2526655542,
        5096286545,
        5096286546,
        2526655539,
        2526655547,
        2526655546,
        2526655553,
        5096286547,
        5096286587,
        2526655536,
        2526655552,
        2526655548,
        2526655550,
        5096286588,
        5096286589,
        2526655538,
        2526655534,
        2526655530,
        5096286566,
        5096286567,
        2526655526,
        2526655522,
        2526655520,
        2526655519,
        2526655517,
        5096286568,
        2526655514,
        5096286569,
        2526655513,
        5096286570,
        2526655512,
        2526655511,
        2526655510,
        5096286572,
        5096286571,
        2526655509,
        2526655507,
        5096286573,
        2526655504,
        5096286574,
        2526655502,
        2526655505,
        5096286575,
        2526655508,
        2526655501,
        2526655503,
        1240339979,
        5096286576,
        5096286579,
        5096286577,
        5096286578,
        1240339982
      ],
      "tags": {
        "OnroerendErfgoed:criteria": "BE",
        "addr:city": "Gent",
        "addr:housenumber": "1",
        "addr:postcode": "9000",
        "addr:street": "Fernand Scribedreef",
        "alt_name": "MSK",
        "building": "yes",
        "building:architecture": "neoclassicism",
        "check_date": "2022-12-09",
        "construction_date": "1898..1904",
        "email": "museum.msk@stad.gent",
        "fee": "yes",
        "heritage": "4",
        "heritage:operator": "OnroerendErfgoed",
        "heritage:website": "https://id.erfgoed.net/erfgoedobjecten/18199",
        "image": "File:MSK19122008.JPG",
        "museum": "art",
        "name": "Museum voor Schone Kunsten",
        "name:en": "Museum of Fine Arts",
        "name:fr": "Musée des Beaux-Arts de Gand",
        "opening_hours": "Tu-Fr 09:30-17:30; Sa-Su 10:00-18:00; Th[1] 09:30-22:00; SH 10:00-18:00; Jan 1-2,Dec 25-26 off",
        "phone": "+32 93236700",
        "ref:OnroerendErfgoed": "18199",
        "start_date": "1904",
        "tourism": "museum",
        "website": "https://www.mskgent.be/",
        "wikidata": "Q2365880",
        "wikimedia_commons": "Category:Museum of Fine Arts, Ghent",
        "wikipedia": "nl:Museum voor Schone Kunsten (Gent)"
      }
    },
    {
      "type": "way",
      "id": 132801022,
      "nodes": [
        1461088537,
        1461088545,
        4255945659,
        1461088533,
        1461088544,
        1461088558,
        1461088537
      ],
      "tags": {
        "OnroerendErfgoed:criteria": "M",
        "addr:housenumber": "9",
        "addr:street": "Korte Meer",
        "building": "yes",
        "heritage": "4",
        "heritage:operator": "OnroerendErfgoed",
        "heritage:website": "https://inventaris.onroerenderfgoed.be/dibe/relict/25193",
        "ref:OnroerendErfgoed": "25193",
        "tourism": "museum"
      }
    },
    {
      "type": "way",
      "id": 140966622,
      "nodes": [
        4637582542,
        9535665467,
        9535665468,
        9535665469,
        9535665470,
        1543152245,
        4254661038,
        4254661040,
        1543152253,
        4637582543,
        4637582542
      ],
      "tags": {
        "OnroerendErfgoed:criteria": "BE",
        "addr:housenumber": "82",
        "addr:street": "Veldstraat",
        "alt_name": "Museum A. Vander Haeghen",
        "architect": "David 't Kindt",
        "architect:wikidata": "Q5241499",
        "building": "yes",
        "building:architecture": "rococo",
        "castle_type": "manor",
        "heritage": "4",
        "heritage:operator": "OnroerendErfgoed",
        "heritage:website": "https://id.erfgoed.net/erfgoedobjecten/26001",
        "historic": "castle",
        "name": "Arnold Vander Haeghen",
        "official_name": "Museum Arnold Vander Haeghen",
        "old_name": "Hotel Clemmen",
        "ref:OnroerendErfgoed": "26001",
        "start_date": "1746",
        "tourism": "museum",
        "wikidata": "Q2032787",
        "wikipedia": "nl:Museum Arnold Vander Haeghen"
      }
    },
    {
      "type": "way",
      "id": 172865902,
      "nodes": [
        8300399060,
        1837121584,
        8300399061,
        8300399062,
        8300399063,
        8300399064,
        8300399065,
        8300399066,
        1837121583,
        1837121585,
        2519240486,
        2519240489,
        2519240490,
        2519240491,
        1837121578,
        1837121581,
        8300399067,
        8300399068,
        8300399069,
        8300399070,
        1837121582,
        2519240488,
        2519240487,
        8300399059,
        8300399060
      ],
      "tags": {
        "addr:city": "Gent",
        "addr:housenumber": "1023",
        "addr:postcode": "9000",
        "addr:street": "Kortrijksesteenweg",
        "amenity": "conference_centre",
        "building": "yes",
        "historic": "castle",
        "name": "Maaltebruggekasteel",
        "source:geometry:date": "2003-11-27",
        "source:geometry:ref": "Gbg/117142",
        "wikidata": "Q4332944",
        "wikipedia": "nl:Maaltebruggekasteel"
      }
    },
    {
      "type": "way",
      "id": 198038889,
      "nodes": [
        2082312051,
        2082312119,
        2082312103,
        2082312105,
        2082312067,
        2082312002,
        2082312007,
        2082311993,
        2082312017,
        2082312029,
        2082312051
      ],
      "tags": {
        "amenity": "theatre",
        "building": "yes",
        "name": "Studio M"
      }
    },
    {
      "type": "way",
      "id": 210985926,
      "nodes": [
        6568953847,
        6568953846,
        2210063074,
        2210063067,
        2210063085,
        2210063065,
        2210063080,
        2210063086,
        2210063081,
        3351575395,
        2210063069,
        3367571593,
        2210063083,
        2210063079,
        2210063070,
        2210063068,
        2210063076,
        3367520697,
        3351575216,
        3351575214,
        3351575210,
        3351575212,
        3351575211,
        3368338974,
        3351582640,
        2210063075,
        3351582642,
        2210063072,
        3368338975,
        3370852258,
        3367520196,
        6568953848,
        6568953847
      ],
      "tags": {
        "addr:housenumber": "12",
        "addr:street": "Ter Platen",
        "amenity": "cinema",
        "brand": "Kinepolis",
        "brand:wikidata": "Q1741993",
        "brand:wikipedia": "nl:Kinepolis",
        "building": "yes",
        "image": "https://images.mapillary.com/VOGXoETXVXN03AecQCdc4q/thumb-2048.jpg",
        "mapillary": "1124926148012521",
        "name": "Kinepolis Gent",
        "opening_hours": "13:00-22:50",
        "wheelchair": "yes"
      }
    },
    {
      "type": "way",
      "id": 227926229,
      "nodes": [
        2365554412,
        2365554368,
        2365557211,
        2365557203,
        2365557207,
        2365557209,
        2365557205,
        2365554382,
        2365554390,
        2365554412
      ],
      "tags": {
        "addr:housenumber": "1",
        "addr:street": "Jan Hoetplein",
        "alt_name": "smak,SMAK",
        "building": "public",
        "check_date": "2022-12-09",
        "email": "info@smak.be",
        "fee": "yes",
        "name": "S.M.A.K.",
        "opening_hours": "Mo off; Tu-Fr 09:30-17:30; Sa-Su 10:00-18:00; SH Tu-Su 10:00-18:00; PH Tu-Su 10:00-18:00; Jan 01-02,Dec 25,Dec 30 off",
        "phone": "+32 93236001",
        "tourism": "museum",
        "website": "https://smak.be/",
        "wikidata": "Q1540707"
      }
    },
    {
      "type": "way",
      "id": 313299804,
      "nodes": [
        1271963989,
        6083587785,
        6083587787,
        6083587786,
        1271963990,
        1804908658,
        6556051626,
        1804908655,
        3192105302,
        6556051623,
        1271963984,
        2402543238,
        6083587789,
        2587463284,
        2587463286,
        1271963979,
        6083587784,
        1271963989
      ],
      "tags": {
        "addr:city": "Gent",
        "addr:housenumber": "23",
        "addr:postcode": "9000",
        "addr:street": "Sint-Pietersnieuwstraat",
        "amenity": "theatre",
        "building": "yes",
        "name": "De Vooruit",
        "operator": "VIERNULVIER",
        "operator:wikidata": "Q112115522",
        "website": "http://www.viernulvier.gent",
        "wikidata": "Q907677",
        "wikipedia": "en:Vooruit"
      }
    },
    {
      "type": "way",
      "id": 329902834,
      "nodes": [
        2188108115,
        2188108116,
        2188108119,
        3368459362,
        2188108118,
        3368459361,
        2188108113,
        2188108111,
        2188108112,
        2188108109,
        1362449196,
        2188108114,
        2188108115
      ],
      "tags": {
        "addr:housenumber": "14",
        "addr:street": "Sint-Pietersplein",
        "description": "natuurmuseum voor kinderen en jongeren",
        "fee": "yes",
        "name": "De Wereld van Kina",
        "tourism": "museum",
        "website": "http://www.dewereldvankina.be",
        "wikidata": "Q1967578"
      }
    },
    {
      "type": "way",
      "id": 332205837,
      "nodes": [
        3393172393,
        3393172394,
        6080604864,
        3393168590,
        3393168592,
        3393168589,
        3393168587,
        3393168586,
        6080604859,
        6080604857,
        1456733551,
        1456733521,
        6080604846,
        6080604844,
        6080604839,
        6080604838,
        1456733536,
        1456733487,
        1456733520,
        1456733498,
        1456733540,
        1456733484,
        3393168581,
        3393168583,
        6080604929,
        6080604922,
        6080604901,
        6080604899,
        6080604900,
        6080604868,
        1456733523,
        3393172393
      ],
      "tags": {
        "addr:housenumber": "21",
        "addr:street": "Tinnenpotstraat",
        "amenity": "theatre",
        "building": "yes",
        "name": "Tinnenpot",
        "website": "http://www.tinnenpot.be/",
        "wikidata": "Q28149771"
      }
    },
    {
      "type": "way",
      "id": 358235351,
      "nodes": [
        6902508089,
        6902508091,
        6902508095,
        6902508097,
        6902508100,
        3631896728,
        6902508098,
        6902508094,
        6902508092,
        6902508087,
        6902500683,
        6902500682,
        6902500684,
        6902508089
      ],
      "tags": {
        "amenity": "theatre",
        "covered": "no",
        "name": "Openluchttheater",
        "theatre:type": "open_air"
      }
    },
    {
      "type": "way",
      "id": 451557514,
      "nodes": [
        2506882231,
        4483786451,
        4483786394,
        4483786354,
        4483786351,
        4483786352,
        4483786350,
        4483786349,
        4483786347,
        4483786488,
        4483786523,
        4483786527,
        2506882229,
        7119256424,
        2506882231
      ],
      "tags": {
        "addr:city": "Gent",
        "addr:housenumber": "146A",
        "addr:postcode": "9000",
        "addr:street": "Drongensesteenweg",
        "amenity": "theatre",
        "building": "yes",
        "name": "Circusplaneet",
        "source:geometry": "GRB",
        "source:geometry:date": "2009-02-20",
        "source:geometry:ref": "Gbg/1371638",
        "theatre:genre": "circus"
      }
    },
    {
      "type": "way",
      "id": 451769235,
      "nodes": [
        4485877942,
        4485877941,
        4485877922,
        4485877923,
        4485877855,
        4485877853,
        4485877811,
        4485877801,
        4485877795,
        4485877809,
        4485877804,
        4485877815,
        4485877812,
        4485877816,
        4485877813,
        4485877839,
        4485877838,
        4485877910,
        4485877911,
        4485877915,
        4485877950,
        4485877958,
        4485877942
      ],
      "tags": {
        "addr:street": "Oud-Strijderslaan",
        "amenity": "arts_centre",
        "building": "church",
        "name": "Circuskerk",
        "operator": "Circusplaneet",
        "source:geometry": "GRB",
        "source:geometry:date": "2015-10-01",
        "source:geometry:ref": "Gbg/1379333",
        "website": "https://www.circusplaneet.be/over-ons/de-circuskerk/",
        "wikidata": "Q62128510"
      }
    },
    {
      "type": "way",
      "id": 493777006,
      "nodes": [
        4856539239,
        4856539238,
        4856539237,
        4856539236,
        4856539235,
        4856539234,
        4856539233,
        4856539232,
        4856539231,
        4856539239
      ],
      "tags": {
        "addr:housenumber": "4",
        "addr:postcode": "9000",
        "addr:street": "Sint-Widostraat",
        "amenity": "theatre",
        "building": "house",
        "name": "NTGent Arca",
        "source:geometry:date": "2015-10-01",
        "source:geometry:ref": "Gbg/5380488"
      }
    },
    {
      "type": "way",
      "id": 498306777,
      "nodes": [
        4897571237,
        4897571231,
        4897571230,
        4897571229,
        4897571228,
        4897571227,
        4897571236,
        4897571237
      ],
      "tags": {
        "addr:housenumber": "16-16A",
        "addr:street": "Muinkkaai",
        "amenity": "theatre",
        "building": "yes",
        "name": "La Barraca",
        "source:geometry:date": "2015-10-01",
        "source:geometry:ref": "Gbg/1417049"
      }
    },
    {
      "type": "way",
      "id": 500790440,
      "nodes": [
        4917652392,
        4917652391,
        4917652390,
        4917652389,
        4917652388,
        4917652387,
        4917652386,
        4917652385,
        4917652384,
        4917652383,
        4917652382,
        4917652381,
        4917652380,
        4917652379,
        4917652378,
        4917652377,
        4917652376,
        4917652375,
        4917652374,
        4917652373,
        4917652372,
        4917652371,
        4917652370,
        4917652369,
        4917652368,
        4917652367,
        4917652366,
        4917652365,
        2607753133,
        2402543256,
        4917652362,
        2607753136,
        4254770997,
        4917652360,
        4917652359,
        4917652358,
        4917652392
      ],
      "tags": {
        "OnroerendErfgoed:criteria": "M",
        "addr:housenumber": "13",
        "addr:street": "Korianderstraat",
        "amenity": "theatre",
        "building": "yes",
        "description": "Minardschouwburg",
        "heritage": "4",
        "heritage:operator": "OnroerendErfgoed",
        "heritage:website": "https://inventaris.onroerenderfgoed.be/dibe/relict/21325",
        "name": "Minardschouwburg",
        "ref:OnroerendErfgoed": "21325",
        "source:geometry:date": "2015-10-01",
        "source:geometry:ref": "Gbg/5379609",
        "wheelchair": "limited",
        "wikidata": "Q2003846",
        "wikipedia": "nl:Minardschouwburg"
      }
    },
    {
      "type": "way",
      "id": 501469575,
      "nodes": [
        4408511133,
        4922731873,
        4922731875,
        9439784995,
        4922731847,
        4922731849,
        4922731877,
        4922731883,
        9439784991,
        4922731893,
        4922716906,
        4922716907,
        4922731843,
        4922731842,
        4922731841,
        4922731840,
        4922731839,
        4922731838,
        4922731837,
        4922731836,
        4922731835,
        4922731834,
        9439784986,
        9439784985,
        4408537041,
        4922731832,
        9439784984,
        9439784996,
        9439784997,
        9439784998,
        4408537038,
        1212212206,
        4922731831,
        4408511122,
        4408511121,
        4408511124,
        4408511116,
        4408511118,
        4408511117,
        4408511119,
        4408511120,
        5607863291,
        4408511125,
        4408511123,
        4408511126,
        4408511127,
        4408511128,
        4408511129,
        4408511130,
        4408511131,
        4408511132,
        4408511133
      ],
      "tags": {
        "OnroerendErfgoed:criteria": "BE",
        "addr:city": "Gent",
        "addr:housenumber": "17",
        "addr:postcode": "9000",
        "addr:street": "Sint-Baafsplein",
        "amenity": "theatre",
        "architect": "Edmond De Vigne",
        "architect:wikidata": "Q1285546",
        "building": "yes",
        "building:architecture": "neo-renaissance;eclectic",
        "heritage": "4",
        "heritage:operator": "OnroerendErfgoed",
        "heritage:website": "https://id.erfgoed.net/erfgoedobjecten/25748",
        "historic": "building",
        "image": "https://commons.wikimedia.org/wiki/File:Koninklijke_Nederlandse_Schouwburg.001_-_Gent.jpg",
        "mapillary": "1787523684763968",
        "name": "Koninklijke Nederlandse Schouwburg",
        "operator": "NTGent",
        "ref:OnroerendErfgoed": "25748",
        "short_name": "KNS",
        "source:geometry:date": "2015-10-01",
        "source:geometry:ref": "Gbg/1361437",
        "start_date": "1897..1898",
        "website": "https://www.ntgent.be",
        "wikidata": "Q2071468",
        "wikimedia_commons": "Category:Koninklijke Nederlandse Schouwburg, Gent",
        "wikipedia": "nl:Koninklijke Nederlandse Schouwburg (Gent)"
      }
    },
    {
      "type": "way",
      "id": 501469592,
      "nodes": [
        4922731919,
        4922731918,
        4922731994,
        5607863285,
        4922731993,
        4922731992,
        8375627803,
        4922731991,
        7449153422,
        4922731990,
        4922731988,
        4922731987,
        4922731986,
        4922731985,
        4922731983,
        4922731982,
        4922731981,
        4922731980,
        4922731979,
        4922731978,
        4922731977,
        4922731976,
        9177877924,
        9177877925,
        4922731974,
        4922731973,
        4922731972,
        4922731971,
        9177877926,
        9177877927,
        4922731970,
        4922731969,
        4922731968,
        4922731967,
        9177877928,
        9177877929,
        4922731966,
        4922731965,
        4922731964,
        4922731963,
        9177877930,
        9177877932,
        4922731962,
        4922731961,
        4922731960,
        4922731959,
        9177877931,
        9177877934,
        4922731958,
        4922731957,
        4922731956,
        4922731955,
        9177877935,
        9177877936,
        4922731954,
        4922731953,
        4922731952,
        4922731951,
        4922731950,
        4922731949,
        4922731948,
        8375669117,
        4922731947,
        4922731946,
        4922731945,
        5607863293,
        4922731944,
        4922731943,
        8378251815,
        8378305417,
        4922731942,
        8375719991,
        4922731919
      ],
      "tags": {
        "OnroerendErfgoed:criteria": "BE",
        "addr:city": "Gent",
        "addr:postcode": "9000",
        "addr:street": "Botermarkt",
        "building": "yes",
        "building:colour": "#E2DCCE",
        "building:material": "stone",
        "description": "Lakenhal",
        "height": "16",
        "heritage": "4",
        "heritage:operator": "OnroerendErfgoed",
        "heritage:website": "https://inventaris.onroerenderfgoed.be/dibe/relict/24556",
        "historic": "building",
        "name": "Lakenhalle",
        "note": "height up to eaves",
        "ref:OnroerendErfgoed": "24556",
        "roof:colour": "brown",
        "roof:shape": "flat",
        "source:geometry:date": "2015-10-01",
        "source:geometry:ref": "Gbg/1361775",
        "tourism": "museum",
        "wikidata": "Q55453597",
        "wikimedia_commons": "File:Belfort_Gent.jpg"
      }
    },
    {
      "type": "way",
      "id": 501472628,
      "nodes": [
        4922731943,
        8378251816,
        8378251814,
        10815282268,
        10815282267,
        3062510102,
        8378251813,
        8378305420,
        3062510097,
        4922759005,
        4922759004,
        4922759003,
        8378305419,
        8378305418,
        4922731942,
        8378305417,
        8378251815,
        4922731943
      ],
      "tags": {
        "OnroerendErfgoed:criteria": "BE",
        "addr:city": "Gent",
        "addr:country": "BE",
        "addr:housenumber": "17",
        "addr:postcode": "9000",
        "addr:street": "Botermarkt",
        "building": "yes",
        "building:colour": "#C5C1B8",
        "building:material": "stone",
        "description": "Belfort",
        "height": "95",
        "heritage": "1",
        "heritage:operator": "whc",
        "heritage:website": "https://id.erfgoed.net/erfgoedobjecten/24555",
        "historic": "tower",
        "image": "File:Gent_Belfort_R03.jpg",
        "man_made": "tower",
        "mapillary": "2654547154840699",
        "name": "Belfort",
        "ref:OnroerendErfgoed": "24555",
        "ref:whc": "943-008",
        "roof:height": "95",
        "roof:material": "slate",
        "roof:shape": "pyramidal",
        "source:geometry:date": "2015-10-01",
        "source:geometry:ref": "Gbg/1361776",
        "start_date": "1313",
        "tourism": "museum",
        "tower:type": "bell_tower",
        "whc:criteria": "(ii)(iv)",
        "whc:inscription_date": "1999",
        "wikidata": "Q815443",
        "wikimedia_commons": "Category:Belfry of Ghent",
        "wikipedia": "nl:Belfort van Gent"
      }
    },
    {
      "type": "way",
      "id": 502977224,
      "nodes": [
        4933337849,
        4933337850,
        4580267386,
        205272506,
        4933337719,
        4580267387,
        4933337718,
        4933337717,
        4933337716,
        4933337715,
        4933337714,
        4933337713,
        4933337712,
        4933337710,
        4580267789,
        4580267790,
        4933298188,
        4933298189,
        4933337704,
        4933337703,
        4933337702,
        4933337701,
        4933337700,
        4933337699,
        4933337698,
        4933337697,
        4933337696,
        4933337695,
        4933337694,
        4933337693,
        4933337692,
        4933337691,
        4933337690,
        4933337689,
        4933337688,
        4933337687,
        4933337686,
        4933337685,
        4933337684,
        4933337683,
        4933337682,
        4933337681,
        4933337680,
        4933337679,
        4933337678,
        4933337677,
        4933337676,
        4933337675,
        4933337674,
        4933337673,
        4933337849
      ],
      "tags": {
        "addr:city": "Gent",
        "addr:country": "BE",
        "addr:housenumber": "10",
        "addr:postcode": "9000",
        "addr:street": "Minnemeers",
        "building": "industrial",
        "building:material": "brick",
        "image": "https://images.mapillary.com/Bm7rBKouwMRs1M80zrJTFB/thumb-2048.jpg",
        "mapillary": "458851591891627",
        "name": "Industriemuseum",
        "name:en": "Museum of Industry",
        "name:fr": "Musée de l'industrie",
        "old_name": "Museum voor Industriële Archeologie en Textiel",
        "old_name:en": "Museum for Industrial Archeology",
        "opening_hours": "Mo-Fr 09:00-17:00; We off; Sa,Su,PH,SH 10:00-18:00",
        "source:geometry:date": "2015-10-01",
        "source:geometry:ref": "Gbg/1360236",
        "tourism": "museum",
        "website": "https://www.industriemuseum.be/",
        "wheelchair": "yes",
        "wikidata": "Q2245203"
      }
    },
    {
      "type": "way",
      "id": 1017120095,
      "nodes": [
        9381669620,
        9381669621,
        9381669622,
        9381669623,
        9381669624,
        9381669625,
        9381669626,
        9381669627,
        9381669620
      ],
      "tags": {
        "addr:housenumber": "55",
        "addr:street": "Berouw",
        "building": "yes",
        "name": "Tuin van Kina",
        "opening_hours": "Mo-Fr 09:00-17:00, Sa-Su 14:00-17:30, PH 14:00-17:30",
        "phone": "+3292250542",
        "tourism": "museum",
        "website": "https://dewereldvankina.stad.gent"
      }
    },
    {
      "type": "way",
      "id": 1111992419,
      "nodes": [
        4858477267,
        9847666004,
        9847666005,
        9847666006,
        9847666007,
        9847666008,
        9847666009,
        4858477222,
        4858477252,
        4858477251,
        4858477175,
        4858477176,
        4858477177,
        4858477178,
        4858477179,
        4858477180,
        4858477181,
        4858477182,
        4858477183,
        4858477184,
        4858477185,
        4858477186,
        4858477187,
        4858477188,
        4858477189,
        4858477190,
        4858477191,
        4858477192,
        4858477193,
        4858477194,
        4858477195,
        4858477196,
        4858477197,
        4858477198,
        4858477199,
        4858477200,
        4858477201,
        4858477202,
        4858477203,
        4858477204,
        4858477205,
        4858477206,
        4858477259,
        4858477498,
        4858477497,
        4858477253,
        4858477267
      ],
      "tags": {
        "addr:city": "Gent",
        "addr:housenumber": "5",
        "addr:postcode": "9000",
        "addr:street": "Jan Breydelstraat",
        "email": "museum.design@gent.be",
        "museum": "design",
        "name": "Design Museum Gent",
        "opening_hours": "Mo,Tu,Th,Fr 09:30-17:30; Sa,Su,PH 10:00-18:00",
        "phone": "+32 9 267 99 99",
        "toilets:wheelchair": "yes",
        "tourism": "museum",
        "wheelchair": "limited",
        "wikidata": "Q1809071",
        "wikipedia": "nl:Design museum Gent"
      }
    },
    {
      "type": "relation",
      "id": 3430771,
      "members": [
        {
          "type": "node",
          "ref": 2617908127,
          "role": ""
        },
        {
          "type": "way",
          "ref": 132801022,
          "role": ""
        }
      ],
      "tags": {
        "name": "Museum voor de geschiedenis van de wetenschappen van de R.U.G.",
        "tourism": "museum",
        "type": "site"
      }
    },
    {
      "type": "relation",
      "id": 4621802,
      "members": [
        {
          "type": "way",
          "ref": 329902832,
          "role": "outer"
        },
        {
          "type": "way",
          "ref": 208518123,
          "role": "inner"
        }
      ],
      "tags": {
        "name": "Kunsthal Sint-Pietersabdij",
        "tourism": "museum",
        "type": "multipolygon",
        "website": "http://www.sintpietersabdijgent.be/",
        "wikidata": "Q2259810"
      }
    },
    {
      "type": "relation",
      "id": 7245169,
      "members": [
        {
          "type": "way",
          "ref": 493483080,
          "role": "outer"
        },
        {
          "type": "way",
          "ref": 493483079,
          "role": "inner"
        }
      ],
      "tags": {
        "OnroerendErfgoed:criteria": "BE",
        "addr:housenumber": "65",
        "addr:street": "Kraanlei",
        "building": "yes",
        "building:architecture": "gothic;renaissance",
        "heritage": "4",
        "heritage:operator": "OnroerendErfgoed",
        "heritage:website": "https://id.erfgoed.net/erfgoedobjecten/25244",
        "historic": "building",
        "name": "Huis van Alijn",
        "old_name": "Kinderen Alijnshospitaal",
        "opening_hours": "Mo, Tu, Th, Fr 09:00-17:00; Sa-Su, PH 10:00-18:00; We off",
        "phone": "+32 9 235 38 00",
        "ref:OnroerendErfgoed": "25244",
        "source:geometry:date": "2009-11-20",
        "source:geometry:ref": "Gbg/1360713",
        "start_date": "early C16",
        "tourism": "museum",
        "type": "multipolygon",
        "website": "https://huisvanalijn.be/",
        "wikidata": "Q2358158",
        "wikimedia_commons": "Category:Huis van Alijn",
        "wikipedia": "nl:Huis van Alijn"
      }
    },
    {
      "type": "node",
      "id": 972458443,
      "lat": 51.0261634,
      "lon": 3.6909927
    },
    {
      "type": "node",
      "id": 972458450,
      "lat": 51.0267736,
      "lon": 3.6943804
    },
    {
      "type": "node",
      "id": 972458452,
      "lat": 51.0257935,
      "lon": 3.6917672
    },
    {
      "type": "node",
      "id": 972458489,
      "lat": 51.0264086,
      "lon": 3.6908209
    },
    {
      "type": "node",
      "id": 972458500,
      "lat": 51.0256683,
      "lon": 3.6929101
    },
    {
      "type": "node",
      "id": 972458533,
      "lat": 51.027176,
      "lon": 3.6942508
    },
    {
      "type": "node",
      "id": 972458535,
      "lat": 51.0273404,
      "lon": 3.6902789
    },
    {
      "type": "node",
      "id": 972458541,
      "lat": 51.0271555,
      "lon": 3.6901124
    },
    {
      "type": "node",
      "id": 972458553,
      "lat": 51.0255533,
      "lon": 3.690411
    },
    {
      "type": "node",
      "id": 972458561,
      "lat": 51.0259237,
      "lon": 3.6918813
    },
    {
      "type": "node",
      "id": 972458583,
      "lat": 51.0282839,
      "lon": 3.6911161
    },
    {
      "type": "node",
      "id": 972458589,
      "lat": 51.027686,
      "lon": 3.6933336
    },
    {
      "type": "node",
      "id": 972458607,
      "lat": 51.0255327,
      "lon": 3.6951112
    },
    {
      "type": "node",
      "id": 972458627,
      "lat": 51.0262666,
      "lon": 3.6906961
    },
    {
      "type": "node",
      "id": 972458634,
      "lat": 51.0267756,
      "lon": 3.6897786
    },
    {
      "type": "node",
      "id": 972458640,
      "lat": 51.0253734,
      "lon": 3.6909252
    },
    {
      "type": "node",
      "id": 972458645,
      "lat": 51.0280555,
      "lon": 3.6922886
    },
    {
      "type": "node",
      "id": 972458663,
      "lat": 51.0260357,
      "lon": 3.6918679
    },
    {
      "type": "node",
      "id": 972458665,
      "lat": 51.0279054,
      "lon": 3.6907812
    },
    {
      "type": "node",
      "id": 972458670,
      "lat": 51.0277182,
      "lon": 3.6906151
    },
    {
      "type": "node",
      "id": 972458675,
      "lat": 51.026279,
      "lon": 3.6957798
    },
    {
      "type": "node",
      "id": 2384953978,
      "lat": 51.0254745,
      "lon": 3.6951462
    },
    {
      "type": "node",
      "id": 2384953983,
      "lat": 51.0254986,
      "lon": 3.6951593
    },
    {
      "type": "node",
      "id": 2384953986,
      "lat": 51.0255569,
      "lon": 3.695241
    },
    {
      "type": "node",
      "id": 2384953991,
      "lat": 51.0256278,
      "lon": 3.6952733
    },
    {
      "type": "node",
      "id": 2384953995,
      "lat": 51.0256843,
      "lon": 3.695355
    },
    {
      "type": "node",
      "id": 2384953997,
      "lat": 51.0257589,
      "lon": 3.695389
    },
    {
      "type": "node",
      "id": 2384954001,
      "lat": 51.0258134,
      "lon": 3.6954685
    },
    {
      "type": "node",
      "id": 2384954004,
      "lat": 51.0258864,
      "lon": 3.6955047
    },
    {
      "type": "node",
      "id": 2384954005,
      "lat": 51.0259441,
      "lon": 3.6955868
    },
    {
      "type": "node",
      "id": 2384954006,
      "lat": 51.0260179,
      "lon": 3.6956197
    },
    {
      "type": "node",
      "id": 2384954007,
      "lat": 51.0260745,
      "lon": 3.6957014
    },
    {
      "type": "node",
      "id": 2384954008,
      "lat": 51.0261489,
      "lon": 3.6957348
    },
    {
      "type": "node",
      "id": 2384954009,
      "lat": 51.0262038,
      "lon": 3.6958157
    },
    {
      "type": "node",
      "id": 2384954014,
      "lat": 51.026275,
      "lon": 3.6958505
    },
    {
      "type": "node",
      "id": 2384954017,
      "lat": 51.026293,
      "lon": 3.6958782
    },
    {
      "type": "node",
      "id": 2385209661,
      "lat": 51.0256417,
      "lon": 3.6941498
    },
    {
      "type": "node",
      "id": 2385209665,
      "lat": 51.0257631,
      "lon": 3.6942553
    },
    {
      "type": "node",
      "id": 2385209667,
      "lat": 51.0257485,
      "lon": 3.6938496
    },
    {
      "type": "node",
      "id": 2385209671,
      "lat": 51.0257848,
      "lon": 3.6938805
    },
    {
      "type": "node",
      "id": 2385209673,
      "lat": 51.0258194,
      "lon": 3.6943097
    },
    {
      "type": "node",
      "id": 2385209675,
      "lat": 51.025841,
      "lon": 3.6934718
    },
    {
      "type": "node",
      "id": 2385209679,
      "lat": 51.0259054,
      "lon": 3.6932902
    },
    {
      "type": "node",
      "id": 2385209681,
      "lat": 51.0258639,
      "lon": 3.6936575
    },
    {
      "type": "node",
      "id": 2385209683,
      "lat": 51.0259085,
      "lon": 3.6936971
    },
    {
      "type": "node",
      "id": 2385209686,
      "lat": 51.0259552,
      "lon": 3.6935581
    },
    {
      "type": "node",
      "id": 2724028791,
      "lat": 51.0257056,
      "lon": 3.6905474
    },
    {
      "type": "node",
      "id": 4757680240,
      "lat": 51.0259551,
      "lon": 3.6917952
    },
    {
      "type": "node",
      "id": 4757680243,
      "lat": 51.0259289,
      "lon": 3.691383
    },
    {
      "type": "node",
      "id": 4757680248,
      "lat": 51.02754,
      "lon": 3.6933975
    },
    {
      "type": "node",
      "id": 4757680249,
      "lat": 51.0275894,
      "lon": 3.6932494
    },
    {
      "type": "node",
      "id": 4757680250,
      "lat": 51.0274909,
      "lon": 3.6933542
    },
    {
      "type": "node",
      "id": 4757680251,
      "lat": 51.0280153,
      "lon": 3.692057
    },
    {
      "type": "node",
      "id": 4757680252,
      "lat": 51.0279641,
      "lon": 3.6922029
    },
    {
      "type": "node",
      "id": 4757680253,
      "lat": 51.027967,
      "lon": 3.6920147
    },
    {
      "type": "node",
      "id": 4757680254,
      "lat": 51.0276172,
      "lon": 3.6915991
    },
    {
      "type": "node",
      "id": 4757680255,
      "lat": 51.027429,
      "lon": 3.6914349
    },
    {
      "type": "node",
      "id": 4757680256,
      "lat": 51.02705,
      "lon": 3.6910973
    },
    {
      "type": "node",
      "id": 4757680257,
      "lat": 51.0268657,
      "lon": 3.6909329
    },
    {
      "type": "node",
      "id": 6159551107,
      "lat": 51.0254129,
      "lon": 3.6908159
    },
    {
      "type": "node",
      "id": 6159551108,
      "lat": 51.025617,
      "lon": 3.6911445
    },
    {
      "type": "node",
      "id": 6159551111,
      "lat": 51.0256823,
      "lon": 3.6912023
    },
    {
      "type": "node",
      "id": 6159551112,
      "lat": 51.0257009,
      "lon": 3.6912196
    },
    {
      "type": "node",
      "id": 7818073462,
      "lat": 51.0268923,
      "lon": 3.6940037
    },
    {
      "type": "node",
      "id": 7818073463,
      "lat": 51.0259504,
      "lon": 3.6931626
    },
    {
      "type": "node",
      "id": 7840345100,
      "lat": 51.0259099,
      "lon": 3.6914375
    },
    {
      "type": "node",
      "id": 7840345101,
      "lat": 51.025896,
      "lon": 3.6913542
    },
    {
      "type": "node",
      "id": 7840345102,
      "lat": 51.0256703,
      "lon": 3.6926747
    },
    {
      "type": "node",
      "id": 7840345103,
      "lat": 51.0257021,
      "lon": 3.6926043
    },
    {
      "type": "node",
      "id": 7840345104,
      "lat": 51.025653,
      "lon": 3.6927438
    },
    {
      "type": "node",
      "id": 7840345105,
      "lat": 51.0256629,
      "lon": 3.6927532
    },
    {
      "type": "node",
      "id": 7840345106,
      "lat": 51.0257131,
      "lon": 3.6926143
    },
    {
      "type": "node",
      "id": 7840345107,
      "lat": 51.0257631,
      "lon": 3.6924682
    },
    {
      "type": "node",
      "id": 7840345108,
      "lat": 51.0256475,
      "lon": 3.6927989
    },
    {
      "type": "node",
      "id": 7840345109,
      "lat": 51.0256953,
      "lon": 3.6928395
    },
    {
      "type": "node",
      "id": 7840345110,
      "lat": 51.0258096,
      "lon": 3.6925112
    },
    {
      "type": "node",
      "id": 8144032043,
      "lat": 51.0254619,
      "lon": 3.690644
    },
    {
      "type": "node",
      "id": 8144032045,
      "lat": 51.0254094,
      "lon": 3.6908258
    },
    {
      "type": "node",
      "id": 8144032053,
      "lat": 51.0254549,
      "lon": 3.6906635
    },
    {
      "type": "node",
      "id": 8144032056,
      "lat": 51.0260581,
      "lon": 3.6909003
    },
    {
      "type": "node",
      "id": 8283718228,
      "lat": 51.0257186,
      "lon": 3.6912348
    },
    {
      "type": "node",
      "id": 8592765548,
      "lat": 51.0258926,
      "lon": 3.6922742
    },
    {
      "type": "node",
      "id": 9349829857,
      "lat": 51.0267509,
      "lon": 3.6898509
    },
    {
      "type": "node",
      "id": 9349829858,
      "lat": 51.0266387,
      "lon": 3.6899942
    },
    {
      "type": "node",
      "id": 9349829859,
      "lat": 51.0267043,
      "lon": 3.6898066
    },
    {
      "type": "node",
      "id": 9349829860,
      "lat": 51.0266574,
      "lon": 3.6898788
    },
    {
      "type": "node",
      "id": 9349829861,
      "lat": 51.0266638,
      "lon": 3.6898843
    },
    {
      "type": "node",
      "id": 9349829862,
      "lat": 51.0266781,
      "lon": 3.6898444
    },
    {
      "type": "node",
      "id": 9349829863,
      "lat": 51.026688,
      "lon": 3.6898525
    },
    {
      "type": "node",
      "id": 9349829864,
      "lat": 51.0266425,
      "lon": 3.6899455
    },
    {
      "type": "node",
      "id": 9349829865,
      "lat": 51.0266353,
      "lon": 3.6899373
    },
    {
      "type": "node",
      "id": 9349829866,
      "lat": 51.0266289,
      "lon": 3.6899846
    },
    {
      "type": "node",
      "id": 9349829867,
      "lat": 51.026589,
      "lon": 3.6901368
    },
    {
      "type": "node",
      "id": 9349829868,
      "lat": 51.0266355,
      "lon": 3.6901812
    },
    {
      "type": "node",
      "id": 9349829869,
      "lat": 51.0264715,
      "lon": 3.6906435
    },
    {
      "type": "node",
      "id": 9349829870,
      "lat": 51.0263901,
      "lon": 3.6908048
    },
    {
      "type": "node",
      "id": 9349829871,
      "lat": 51.026418,
      "lon": 3.6907321
    },
    {
      "type": "node",
      "id": 9349829872,
      "lat": 51.0263095,
      "lon": 3.690636
    },
    {
      "type": "node",
      "id": 9349829873,
      "lat": 51.0262851,
      "lon": 3.6907127
    },
    {
      "type": "node",
      "id": 9349829874,
      "lat": 51.0259747,
      "lon": 3.6907881
    },
    {
      "type": "node",
      "id": 9349829875,
      "lat": 51.0259988,
      "lon": 3.6908212
    },
    {
      "type": "node",
      "id": 9349829876,
      "lat": 51.0259823,
      "lon": 3.6908791
    },
    {
      "type": "node",
      "id": 9349829877,
      "lat": 51.0259517,
      "lon": 3.6908534
    },
    {
      "type": "node",
      "id": 9349829878,
      "lat": 51.0260538,
      "lon": 3.6908676
    },
    {
      "type": "node",
      "id": 9349829879,
      "lat": 51.0260462,
      "lon": 3.6908891
    },
    {
      "type": "node",
      "id": 9349829880,
      "lat": 51.0254362,
      "lon": 3.6907502
    },
    {
      "type": "node",
      "id": 9349829881,
      "lat": 51.0254269,
      "lon": 3.6907408
    },
    {
      "type": "node",
      "id": 9349829882,
      "lat": 51.025491,
      "lon": 3.6905919
    },
    {
      "type": "node",
      "id": 9349829883,
      "lat": 51.0254838,
      "lon": 3.6905852
    },
    {
      "type": "node",
      "id": 9349829884,
      "lat": 51.0257925,
      "lon": 3.6913005
    },
    {
      "type": "node",
      "id": 9349829885,
      "lat": 51.0258026,
      "lon": 3.6912728
    },
    {
      "type": "node",
      "id": 9349829886,
      "lat": 51.025831,
      "lon": 3.6913009
    },
    {
      "type": "node",
      "id": 9349829887,
      "lat": 51.025826,
      "lon": 3.6913167
    },
    {
      "type": "node",
      "id": 9349829888,
      "lat": 51.0258766,
      "lon": 3.6913649
    },
    {
      "type": "node",
      "id": 9349829889,
      "lat": 51.0258856,
      "lon": 3.691345
    },
    {
      "type": "node",
      "id": 9349829890,
      "lat": 51.0256877,
      "lon": 3.6926462
    },
    {
      "type": "node",
      "id": 9349829891,
      "lat": 51.0256667,
      "lon": 3.6927056
    },
    {
      "type": "node",
      "id": 9349829892,
      "lat": 51.0256814,
      "lon": 3.6926419
    },
    {
      "type": "node",
      "id": 9349829893,
      "lat": 51.0256612,
      "lon": 3.6927001
    },
    {
      "type": "node",
      "id": 9349829894,
      "lat": 51.0280573,
      "lon": 3.6925012
    },
    {
      "type": "node",
      "id": 9349829895,
      "lat": 51.0279969,
      "lon": 3.6924503
    },
    {
      "type": "node",
      "id": 9349829896,
      "lat": 51.0280499,
      "lon": 3.6923043
    },
    {
      "type": "node",
      "id": 9349829897,
      "lat": 51.0281082,
      "lon": 3.6923567
    },
    {
      "type": "node",
      "id": 9349829898,
      "lat": 51.0258911,
      "lon": 3.6935154
    },
    {
      "type": "node",
      "id": 9349829899,
      "lat": 51.0258948,
      "lon": 3.6935074
    },
    {
      "type": "node",
      "id": 9349829900,
      "lat": 51.0258552,
      "lon": 3.6934132
    },
    {
      "type": "node",
      "id": 9349829901,
      "lat": 51.02586,
      "lon": 3.6934326
    },
    {
      "type": "node",
      "id": 9349829902,
      "lat": 51.0258641,
      "lon": 3.6934207
    },
    {
      "type": "node",
      "id": 9349829903,
      "lat": 51.0258554,
      "lon": 3.6934297
    },
    {
      "type": "node",
      "id": 9349829904,
      "lat": 51.0258678,
      "lon": 3.6933966
    },
    {
      "type": "node",
      "id": 9349829905,
      "lat": 51.0258648,
      "lon": 3.6933942
    },
    {
      "type": "node",
      "id": 9349829906,
      "lat": 51.0258572,
      "lon": 3.6934082
    },
    {
      "type": "node",
      "id": 9349829907,
      "lat": 51.0258946,
      "lon": 3.6933208
    },
    {
      "type": "node",
      "id": 9349829908,
      "lat": 51.025904,
      "lon": 3.6933043
    },
    {
      "type": "node",
      "id": 9349829909,
      "lat": 51.0258964,
      "lon": 3.6932974
    },
    {
      "type": "node",
      "id": 9349829910,
      "lat": 51.0258891,
      "lon": 3.6933151
    },
    {
      "type": "node",
      "id": 9349829911,
      "lat": 51.0259083,
      "lon": 3.693293
    },
    {
      "type": "node",
      "id": 9349829912,
      "lat": 51.02592,
      "lon": 3.6932465
    },
    {
      "type": "node",
      "id": 9349829913,
      "lat": 51.0259276,
      "lon": 3.693254
    },
    {
      "type": "node",
      "id": 9349829914,
      "lat": 51.0259402,
      "lon": 3.6931899
    },
    {
      "type": "node",
      "id": 9349829915,
      "lat": 51.0259478,
      "lon": 3.6931966
    },
    {
      "type": "node",
      "id": 9349829916,
      "lat": 51.0258589,
      "lon": 3.6937541
    },
    {
      "type": "node",
      "id": 9349834117,
      "lat": 51.0258365,
      "lon": 3.6937336
    },
    {
      "type": "node",
      "id": 9349834118,
      "lat": 51.0258118,
      "lon": 3.6938056
    },
    {
      "type": "node",
      "id": 9349834119,
      "lat": 51.0258338,
      "lon": 3.693826
    },
    {
      "type": "node",
      "id": 9349834120,
      "lat": 51.0257634,
      "lon": 3.6944678
    },
    {
      "type": "node",
      "id": 9349834121,
      "lat": 51.0257429,
      "lon": 3.6945227
    },
    {
      "type": "node",
      "id": 9349834122,
      "lat": 51.0257184,
      "lon": 3.6944951
    },
    {
      "type": "node",
      "id": 9349834123,
      "lat": 51.0257367,
      "lon": 3.6944459
    },
    {
      "type": "node",
      "id": 1837121578,
      "lat": 51.0227792,
      "lon": 3.7018648
    },
    {
      "type": "node",
      "id": 1837121581,
      "lat": 51.0228497,
      "lon": 3.7018307
    },
    {
      "type": "node",
      "id": 1837121582,
      "lat": 51.0227721,
      "lon": 3.7014569
    },
    {
      "type": "node",
      "id": 1837121583,
      "lat": 51.0226777,
      "lon": 3.7016512
    },
    {
      "type": "node",
      "id": 1837121584,
      "lat": 51.0226105,
      "lon": 3.7014291
    },
    {
      "type": "node",
      "id": 1837121585,
      "lat": 51.0226867,
      "lon": 3.7016466
    },
    {
      "type": "node",
      "id": 2519240486,
      "lat": 51.022723,
      "lon": 3.701846
    },
    {
      "type": "node",
      "id": 2519240487,
      "lat": 51.022722,
      "lon": 3.7014078
    },
    {
      "type": "node",
      "id": 2519240488,
      "lat": 51.0227373,
      "lon": 3.7014762
    },
    {
      "type": "node",
      "id": 2519240489,
      "lat": 51.022744,
      "lon": 3.7018383
    },
    {
      "type": "node",
      "id": 2519240490,
      "lat": 51.0227476,
      "lon": 3.7018546
    },
    {
      "type": "node",
      "id": 2519240491,
      "lat": 51.0227753,
      "lon": 3.701844
    },
    {
      "type": "node",
      "id": 8300399059,
      "lat": 51.022695,
      "lon": 3.7014237
    },
    {
      "type": "node",
      "id": 8300399060,
      "lat": 51.022685,
      "lon": 3.7013846
    },
    {
      "type": "node",
      "id": 8300399061,
      "lat": 51.0226363,
      "lon": 3.7015389
    },
    {
      "type": "node",
      "id": 8300399062,
      "lat": 51.0226596,
      "lon": 3.7015252
    },
    {
      "type": "node",
      "id": 8300399063,
      "lat": 51.0226734,
      "lon": 3.7015896
    },
    {
      "type": "node",
      "id": 8300399064,
      "lat": 51.0226657,
      "lon": 3.7015937
    },
    {
      "type": "node",
      "id": 8300399065,
      "lat": 51.0226587,
      "lon": 3.7016168
    },
    {
      "type": "node",
      "id": 8300399066,
      "lat": 51.0226638,
      "lon": 3.7016406
    },
    {
      "type": "node",
      "id": 8300399067,
      "lat": 51.0228279,
      "lon": 3.7017256
    },
    {
      "type": "node",
      "id": 8300399068,
      "lat": 51.0228391,
      "lon": 3.7017197
    },
    {
      "type": "node",
      "id": 8300399069,
      "lat": 51.022822,
      "lon": 3.70163
    },
    {
      "type": "node",
      "id": 8300399070,
      "lat": 51.0228094,
      "lon": 3.7016365
    },
    {
      "type": "node",
      "id": 4485877795,
      "lat": 51.0520974,
      "lon": 3.6939708
    },
    {
      "type": "node",
      "id": 4485877801,
      "lat": 51.0521063,
      "lon": 3.6940361
    },
    {
      "type": "node",
      "id": 4485877804,
      "lat": 51.0521104,
      "lon": 3.6939328
    },
    {
      "type": "node",
      "id": 4485877809,
      "lat": 51.0521152,
      "lon": 3.6939641
    },
    {
      "type": "node",
      "id": 4485877811,
      "lat": 51.0521166,
      "lon": 3.6941118
    },
    {
      "type": "node",
      "id": 4485877812,
      "lat": 51.0521174,
      "lon": 3.693874
    },
    {
      "type": "node",
      "id": 4485877813,
      "lat": 51.0521198,
      "lon": 3.693852
    },
    {
      "type": "node",
      "id": 4485877815,
      "lat": 51.0521213,
      "lon": 3.6939028
    },
    {
      "type": "node",
      "id": 4485877816,
      "lat": 51.0521226,
      "lon": 3.6938726
    },
    {
      "type": "node",
      "id": 4485877838,
      "lat": 51.0521535,
      "lon": 3.6938259
    },
    {
      "type": "node",
      "id": 4485877839,
      "lat": 51.0521554,
      "lon": 3.6938398
    },
    {
      "type": "node",
      "id": 4485877853,
      "lat": 51.0521816,
      "lon": 3.6940886
    },
    {
      "type": "node",
      "id": 4485877855,
      "lat": 51.0521865,
      "lon": 3.6940694
    },
    {
      "type": "node",
      "id": 4485877910,
      "lat": 51.0522834,
      "lon": 3.6937813
    },
    {
      "type": "node",
      "id": 4485877911,
      "lat": 51.0522853,
      "lon": 3.6937953
    },
    {
      "type": "node",
      "id": 4485877915,
      "lat": 51.0522884,
      "lon": 3.6937942
    },
    {
      "type": "node",
      "id": 4485877922,
      "lat": 51.0523191,
      "lon": 3.6940154
    },
    {
      "type": "node",
      "id": 4485877923,
      "lat": 51.0523201,
      "lon": 3.6940222
    },
    {
      "type": "node",
      "id": 4485877941,
      "lat": 51.0523567,
      "lon": 3.6940018
    },
    {
      "type": "node",
      "id": 4485877942,
      "lat": 51.0523602,
      "lon": 3.694025
    },
    {
      "type": "node",
      "id": 4485877950,
      "lat": 51.0523883,
      "lon": 3.69376
    },
    {
      "type": "node",
      "id": 4485877958,
      "lat": 51.0524219,
      "lon": 3.694003
    },
    {
      "type": "node",
      "id": 3631896728,
      "lat": 51.0404416,
      "lon": 3.7204436
    },
    {
      "type": "node",
      "id": 6902500682,
      "lat": 51.0399963,
      "lon": 3.720235
    },
    {
      "type": "node",
      "id": 6902500683,
      "lat": 51.0400264,
      "lon": 3.720369
    },
    {
      "type": "node",
      "id": 6902500684,
      "lat": 51.0400379,
      "lon": 3.7200972
    },
    {
      "type": "node",
      "id": 6902508087,
      "lat": 51.04008,
      "lon": 3.7205115
    },
    {
      "type": "node",
      "id": 6902508089,
      "lat": 51.0400878,
      "lon": 3.7200274
    },
    {
      "type": "node",
      "id": 6902508091,
      "lat": 51.0401648,
      "lon": 3.7200053
    },
    {
      "type": "node",
      "id": 6902508092,
      "lat": 51.040169,
      "lon": 3.7205919
    },
    {
      "type": "node",
      "id": 6902508094,
      "lat": 51.0402497,
      "lon": 3.7206254
    },
    {
      "type": "node",
      "id": 6902508095,
      "lat": 51.0402509,
      "lon": 3.7200264
    },
    {
      "type": "node",
      "id": 6902508097,
      "lat": 51.0403513,
      "lon": 3.7201173
    },
    {
      "type": "node",
      "id": 6902508098,
      "lat": 51.0403977,
      "lon": 3.7206331
    },
    {
      "type": "node",
      "id": 6902508100,
      "lat": 51.0404578,
      "lon": 3.7202752
    },
    {
      "type": "node",
      "id": 1131236841,
      "lat": 51.0443418,
      "lon": 3.7194889
    },
    {
      "type": "node",
      "id": 1131236842,
      "lat": 51.0445449,
      "lon": 3.7187057
    },
    {
      "type": "node",
      "id": 1131236844,
      "lat": 51.0443226,
      "lon": 3.7195701
    },
    {
      "type": "node",
      "id": 1131236853,
      "lat": 51.0447613,
      "lon": 3.7188449
    },
    {
      "type": "node",
      "id": 1131236859,
      "lat": 51.0443873,
      "lon": 3.7194185
    },
    {
      "type": "node",
      "id": 1131236861,
      "lat": 51.0442317,
      "lon": 3.7192569
    },
    {
      "type": "node",
      "id": 1131236863,
      "lat": 51.0443674,
      "lon": 3.7195048
    },
    {
      "type": "node",
      "id": 1131236865,
      "lat": 51.0447541,
      "lon": 3.7188748
    },
    {
      "type": "node",
      "id": 1131236866,
      "lat": 51.0443503,
      "lon": 3.7187859
    },
    {
      "type": "node",
      "id": 1131236868,
      "lat": 51.0447854,
      "lon": 3.7188966
    },
    {
      "type": "node",
      "id": 1131263171,
      "lat": 51.0445791,
      "lon": 3.7196633
    },
    {
      "type": "node",
      "id": 1131263174,
      "lat": 51.0446106,
      "lon": 3.719542
    },
    {
      "type": "node",
      "id": 1131263177,
      "lat": 51.0446614,
      "lon": 3.7193479
    },
    {
      "type": "node",
      "id": 1131263178,
      "lat": 51.0446921,
      "lon": 3.7192283
    },
    {
      "type": "node",
      "id": 1215382822,
      "lat": 51.0441002,
      "lon": 3.7173105
    },
    {
      "type": "node",
      "id": 1215382825,
      "lat": 51.0437192,
      "lon": 3.7171771
    },
    {
      "type": "node",
      "id": 1215382836,
      "lat": 51.0436948,
      "lon": 3.717355
    },
    {
      "type": "node",
      "id": 1215383072,
      "lat": 51.0445857,
      "lon": 3.7197117
    },
    {
      "type": "node",
      "id": 1215383081,
      "lat": 51.0445867,
      "lon": 3.7197546
    },
    {
      "type": "node",
      "id": 1215383086,
      "lat": 51.0445701,
      "lon": 3.7197883
    },
    {
      "type": "node",
      "id": 1215383090,
      "lat": 51.0445447,
      "lon": 3.7197975
    },
    {
      "type": "node",
      "id": 1215383093,
      "lat": 51.0445205,
      "lon": 3.7197781
    },
    {
      "type": "node",
      "id": 1215383096,
      "lat": 51.0445105,
      "lon": 3.7197473
    },
    {
      "type": "node",
      "id": 1882828877,
      "lat": 51.0437551,
      "lon": 3.7171887
    },
    {
      "type": "node",
      "id": 1949557481,
      "lat": 51.0445103,
      "lon": 3.7197256
    },
    {
      "type": "node",
      "id": 1949557483,
      "lat": 51.0445886,
      "lon": 3.719733
    },
    {
      "type": "node",
      "id": 1949557486,
      "lat": 51.0445802,
      "lon": 3.7197738
    },
    {
      "type": "node",
      "id": 1949557487,
      "lat": 51.0445821,
      "lon": 3.7196941
    },
    {
      "type": "node",
      "id": 1949557488,
      "lat": 51.0445315,
      "lon": 3.7197913
    },
    {
      "type": "node",
      "id": 1949557513,
      "lat": 51.0445574,
      "lon": 3.7197965
    },
    {
      "type": "node",
      "id": 1949557514,
      "lat": 51.044513,
      "lon": 3.7197599
    },
    {
      "type": "node",
      "id": 4180814116,
      "lat": 51.0439548,
      "lon": 3.7172616
    },
    {
      "type": "node",
      "id": 4180814117,
      "lat": 51.0439869,
      "lon": 3.7170476
    },
    {
      "type": "node",
      "id": 4180814118,
      "lat": 51.0439873,
      "lon": 3.7172708
    },
    {
      "type": "node",
      "id": 4180814119,
      "lat": 51.0440229,
      "lon": 3.717057
    },
    {
      "type": "node",
      "id": 4180814120,
      "lat": 51.0440981,
      "lon": 3.7173333
    },
    {
      "type": "node",
      "id": 4743523827,
      "lat": 51.0440794,
      "lon": 3.7174496
    },
    {
      "type": "node",
      "id": 4743523828,
      "lat": 51.0440727,
      "lon": 3.7174939
    },
    {
      "type": "node",
      "id": 4743523833,
      "lat": 51.0448374,
      "lon": 3.7192907
    },
    {
      "type": "node",
      "id": 4743523834,
      "lat": 51.0448421,
      "lon": 3.7192938
    },
    {
      "type": "node",
      "id": 4743523835,
      "lat": 51.0448309,
      "lon": 3.7193142
    },
    {
      "type": "node",
      "id": 4743523836,
      "lat": 51.0448031,
      "lon": 3.7188247
    },
    {
      "type": "node",
      "id": 4743523837,
      "lat": 51.0449414,
      "lon": 3.7189132
    },
    {
      "type": "node",
      "id": 4743523838,
      "lat": 51.0445739,
      "lon": 3.7196877
    },
    {
      "type": "node",
      "id": 4743523839,
      "lat": 51.0445149,
      "lon": 3.7197046
    },
    {
      "type": "node",
      "id": 4743523840,
      "lat": 51.0442216,
      "lon": 3.7193047
    },
    {
      "type": "node",
      "id": 8564257486,
      "lat": 51.0443967,
      "lon": 3.7186106
    },
    {
      "type": "node",
      "id": 1543152245,
      "lat": 51.0516071,
      "lon": 3.7213885
    },
    {
      "type": "node",
      "id": 1543152253,
      "lat": 51.0514735,
      "lon": 3.72111
    },
    {
      "type": "node",
      "id": 4254661038,
      "lat": 51.051642,
      "lon": 3.7211063
    },
    {
      "type": "node",
      "id": 4254661040,
      "lat": 51.0514806,
      "lon": 3.7210524
    },
    {
      "type": "node",
      "id": 4637582542,
      "lat": 51.0514172,
      "lon": 3.7213301
    },
    {
      "type": "node",
      "id": 4637582543,
      "lat": 51.0514461,
      "lon": 3.7211023
    },
    {
      "type": "node",
      "id": 4858477175,
      "lat": 51.0558037,
      "lon": 3.7201699
    },
    {
      "type": "node",
      "id": 4858477176,
      "lat": 51.0558039,
      "lon": 3.7201727
    },
    {
      "type": "node",
      "id": 4858477177,
      "lat": 51.0558084,
      "lon": 3.7201718
    },
    {
      "type": "node",
      "id": 4858477178,
      "lat": 51.0558084,
      "lon": 3.7201708
    },
    {
      "type": "node",
      "id": 4858477179,
      "lat": 51.0558088,
      "lon": 3.7201688
    },
    {
      "type": "node",
      "id": 4858477180,
      "lat": 51.0558092,
      "lon": 3.720168
    },
    {
      "type": "node",
      "id": 4858477181,
      "lat": 51.05581,
      "lon": 3.7201669
    },
    {
      "type": "node",
      "id": 4858477182,
      "lat": 51.0558109,
      "lon": 3.7201663
    },
    {
      "type": "node",
      "id": 4858477183,
      "lat": 51.0558146,
      "lon": 3.7201657
    },
    {
      "type": "node",
      "id": 4858477184,
      "lat": 51.0558145,
      "lon": 3.7201644
    },
    {
      "type": "node",
      "id": 4858477206,
      "lat": 51.0558081,
      "lon": 3.719288
    },
    {
      "type": "node",
      "id": 4858477222,
      "lat": 51.0556419,
      "lon": 3.7199176
    },
    {
      "type": "node",
      "id": 4858477251,
      "lat": 51.0556831,
      "lon": 3.7201925
    },
    {
      "type": "node",
      "id": 4858477252,
      "lat": 51.055653,
      "lon": 3.7199913
    },
    {
      "type": "node",
      "id": 4858477253,
      "lat": 51.055479,
      "lon": 3.7197851
    },
    {
      "type": "node",
      "id": 4858477259,
      "lat": 51.0556311,
      "lon": 3.719419
    },
    {
      "type": "node",
      "id": 4858477267,
      "lat": 51.0555387,
      "lon": 3.720077
    },
    {
      "type": "node",
      "id": 4858477497,
      "lat": 51.0554235,
      "lon": 3.7195639
    },
    {
      "type": "node",
      "id": 4858477498,
      "lat": 51.0555427,
      "lon": 3.7194807
    },
    {
      "type": "node",
      "id": 9535665467,
      "lat": 51.0514625,
      "lon": 3.7213441
    },
    {
      "type": "node",
      "id": 9535665468,
      "lat": 51.0514624,
      "lon": 3.7213453
    },
    {
      "type": "node",
      "id": 9535665469,
      "lat": 51.0515602,
      "lon": 3.721377
    },
    {
      "type": "node",
      "id": 9535665470,
      "lat": 51.0515603,
      "lon": 3.7213739
    },
    {
      "type": "node",
      "id": 9847666004,
      "lat": 51.0555907,
      "lon": 3.7200534
    },
    {
      "type": "node",
      "id": 9847666005,
      "lat": 51.0555878,
      "lon": 3.7200382
    },
    {
      "type": "node",
      "id": 9847666006,
      "lat": 51.0555972,
      "lon": 3.7200343
    },
    {
      "type": "node",
      "id": 9847666007,
      "lat": 51.0555931,
      "lon": 3.7199994
    },
    {
      "type": "node",
      "id": 9847666008,
      "lat": 51.055607,
      "lon": 3.7199931
    },
    {
      "type": "node",
      "id": 9847666009,
      "lat": 51.0555968,
      "lon": 3.719932
    },
    {
      "type": "node",
      "id": 4483786347,
      "lat": 51.0563445,
      "lon": 3.6961404
    },
    {
      "type": "node",
      "id": 4483786349,
      "lat": 51.0563506,
      "lon": 3.6961958
    },
    {
      "type": "node",
      "id": 4483786350,
      "lat": 51.0563515,
      "lon": 3.6961954
    },
    {
      "type": "node",
      "id": 4483786488,
      "lat": 51.0566444,
      "lon": 3.6960595
    },
    {
      "type": "node",
      "id": 4483786523,
      "lat": 51.0567241,
      "lon": 3.6960132
    },
    {
      "type": "node",
      "id": 4483786527,
      "lat": 51.0567342,
      "lon": 3.6960308
    },
    {
      "type": "node",
      "id": 2506882229,
      "lat": 51.0567536,
      "lon": 3.6962307
    },
    {
      "type": "node",
      "id": 2506882231,
      "lat": 51.0566334,
      "lon": 3.696264
    },
    {
      "type": "node",
      "id": 4483786351,
      "lat": 51.0563598,
      "lon": 3.6962808
    },
    {
      "type": "node",
      "id": 4483786352,
      "lat": 51.0563607,
      "lon": 3.6962806
    },
    {
      "type": "node",
      "id": 4483786354,
      "lat": 51.0563666,
      "lon": 3.696338
    },
    {
      "type": "node",
      "id": 4483786394,
      "lat": 51.0564722,
      "lon": 3.6963087
    },
    {
      "type": "node",
      "id": 4483786451,
      "lat": 51.056597,
      "lon": 3.6962741
    },
    {
      "type": "node",
      "id": 7119256424,
      "lat": 51.0567317,
      "lon": 3.6962368
    },
    {
      "type": "node",
      "id": 1456733484,
      "lat": 51.0579741,
      "lon": 3.7177006
    },
    {
      "type": "node",
      "id": 1456733487,
      "lat": 51.0580132,
      "lon": 3.7181635
    },
    {
      "type": "node",
      "id": 1456733498,
      "lat": 51.0579719,
      "lon": 3.7178264
    },
    {
      "type": "node",
      "id": 1456733520,
      "lat": 51.0580675,
      "lon": 3.7181145
    },
    {
      "type": "node",
      "id": 1456733521,
      "lat": 51.0581939,
      "lon": 3.7181802
    },
    {
      "type": "node",
      "id": 1456733523,
      "lat": 51.0584495,
      "lon": 3.7179659
    },
    {
      "type": "node",
      "id": 1456733536,
      "lat": 51.0580532,
      "lon": 3.7182612
    },
    {
      "type": "node",
      "id": 1456733540,
      "lat": 51.0579445,
      "lon": 3.7178065
    },
    {
      "type": "node",
      "id": 1456733551,
      "lat": 51.0581842,
      "lon": 3.7181459
    },
    {
      "type": "node",
      "id": 3393168581,
      "lat": 51.0580001,
      "lon": 3.7177473
    },
    {
      "type": "node",
      "id": 3393168583,
      "lat": 51.0580248,
      "lon": 3.7176581
    },
    {
      "type": "node",
      "id": 3393168586,
      "lat": 51.0583261,
      "lon": 3.7180401
    },
    {
      "type": "node",
      "id": 3393168587,
      "lat": 51.0583437,
      "lon": 3.7180946
    },
    {
      "type": "node",
      "id": 3393168589,
      "lat": 51.0583631,
      "lon": 3.7181605
    },
    {
      "type": "node",
      "id": 3393168590,
      "lat": 51.058382,
      "lon": 3.7180532
    },
    {
      "type": "node",
      "id": 3393168592,
      "lat": 51.0584087,
      "lon": 3.7181252
    },
    {
      "type": "node",
      "id": 3393172393,
      "lat": 51.0584305,
      "lon": 3.7179795
    },
    {
      "type": "node",
      "id": 3393172394,
      "lat": 51.0584413,
      "lon": 3.7180148
    },
    {
      "type": "node",
      "id": 4856539231,
      "lat": 51.0574008,
      "lon": 3.7196574
    },
    {
      "type": "node",
      "id": 4856539232,
      "lat": 51.0573769,
      "lon": 3.7196789
    },
    {
      "type": "node",
      "id": 4856539233,
      "lat": 51.0573727,
      "lon": 3.7196569
    },
    {
      "type": "node",
      "id": 4856539234,
      "lat": 51.0573244,
      "lon": 3.7196978
    },
    {
      "type": "node",
      "id": 4856539235,
      "lat": 51.0573395,
      "lon": 3.7197421
    },
    {
      "type": "node",
      "id": 4856539236,
      "lat": 51.0573866,
      "lon": 3.719893
    },
    {
      "type": "node",
      "id": 4856539237,
      "lat": 51.0574568,
      "lon": 3.7199047
    },
    {
      "type": "node",
      "id": 4856539238,
      "lat": 51.0575682,
      "lon": 3.719907
    },
    {
      "type": "node",
      "id": 4856539239,
      "lat": 51.0574786,
      "lon": 3.7196002
    },
    {
      "type": "node",
      "id": 4858477185,
      "lat": 51.0558566,
      "lon": 3.7201567
    },
    {
      "type": "node",
      "id": 4858477186,
      "lat": 51.0558567,
      "lon": 3.7201579
    },
    {
      "type": "node",
      "id": 4858477187,
      "lat": 51.0558597,
      "lon": 3.7201573
    },
    {
      "type": "node",
      "id": 4858477188,
      "lat": 51.055861,
      "lon": 3.7201574
    },
    {
      "type": "node",
      "id": 4858477189,
      "lat": 51.0558617,
      "lon": 3.7201578
    },
    {
      "type": "node",
      "id": 4858477190,
      "lat": 51.0558627,
      "lon": 3.720159
    },
    {
      "type": "node",
      "id": 4858477191,
      "lat": 51.0558631,
      "lon": 3.7201598
    },
    {
      "type": "node",
      "id": 4858477192,
      "lat": 51.0558634,
      "lon": 3.7201607
    },
    {
      "type": "node",
      "id": 4858477193,
      "lat": 51.0558635,
      "lon": 3.7201618
    },
    {
      "type": "node",
      "id": 4858477194,
      "lat": 51.055868,
      "lon": 3.7201609
    },
    {
      "type": "node",
      "id": 4858477195,
      "lat": 51.0558678,
      "lon": 3.7201581
    },
    {
      "type": "node",
      "id": 4858477196,
      "lat": 51.0559827,
      "lon": 3.7201372
    },
    {
      "type": "node",
      "id": 4858477197,
      "lat": 51.0559822,
      "lon": 3.7201297
    },
    {
      "type": "node",
      "id": 4858477198,
      "lat": 51.0559806,
      "lon": 3.7201295
    },
    {
      "type": "node",
      "id": 4858477199,
      "lat": 51.0559792,
      "lon": 3.720128
    },
    {
      "type": "node",
      "id": 4858477200,
      "lat": 51.0559785,
      "lon": 3.7201258
    },
    {
      "type": "node",
      "id": 4858477201,
      "lat": 51.0559635,
      "lon": 3.7199115
    },
    {
      "type": "node",
      "id": 4858477202,
      "lat": 51.0559665,
      "lon": 3.7199083
    },
    {
      "type": "node",
      "id": 4858477203,
      "lat": 51.0559488,
      "lon": 3.7196589
    },
    {
      "type": "node",
      "id": 4858477204,
      "lat": 51.0559093,
      "lon": 3.7194432
    },
    {
      "type": "node",
      "id": 4858477205,
      "lat": 51.0558719,
      "lon": 3.719249
    },
    {
      "type": "node",
      "id": 6080604838,
      "lat": 51.0580634,
      "lon": 3.718287
    },
    {
      "type": "node",
      "id": 6080604839,
      "lat": 51.0581098,
      "lon": 3.718249
    },
    {
      "type": "node",
      "id": 6080604844,
      "lat": 51.0581204,
      "lon": 3.7182404
    },
    {
      "type": "node",
      "id": 6080604846,
      "lat": 51.058142,
      "lon": 3.7182227
    },
    {
      "type": "node",
      "id": 6080604857,
      "lat": 51.0582213,
      "lon": 3.7181182
    },
    {
      "type": "node",
      "id": 6080604859,
      "lat": 51.0582914,
      "lon": 3.7180659
    },
    {
      "type": "node",
      "id": 6080604864,
      "lat": 51.0584336,
      "lon": 3.7180198
    },
    {
      "type": "node",
      "id": 6080604868,
      "lat": 51.0584331,
      "lon": 3.7179149
    },
    {
      "type": "node",
      "id": 6080604899,
      "lat": 51.0583347,
      "lon": 3.7176088
    },
    {
      "type": "node",
      "id": 6080604900,
      "lat": 51.0583495,
      "lon": 3.7176548
    },
    {
      "type": "node",
      "id": 6080604901,
      "lat": 51.0583238,
      "lon": 3.7175747
    },
    {
      "type": "node",
      "id": 6080604922,
      "lat": 51.058276,
      "lon": 3.7174261
    },
    {
      "type": "node",
      "id": 6080604929,
      "lat": 51.0581554,
      "lon": 3.7175375
    },
    {
      "type": "node",
      "id": 1235828153,
      "lat": 51.0421923,
      "lon": 3.7266875
    },
    {
      "type": "node",
      "id": 1235828156,
      "lat": 51.0422984,
      "lon": 3.7267861
    },
    {
      "type": "node",
      "id": 1235828159,
      "lat": 51.0421967,
      "lon": 3.7265482
    },
    {
      "type": "node",
      "id": 1240339979,
      "lat": 51.0375312,
      "lon": 3.7240052
    },
    {
      "type": "node",
      "id": 1240339982,
      "lat": 51.0379042,
      "lon": 3.724963
    },
    {
      "type": "node",
      "id": 1362449196,
      "lat": 51.0412641,
      "lon": 3.7269681
    },
    {
      "type": "node",
      "id": 1478050328,
      "lat": 51.0422725,
      "lon": 3.7275599
    },
    {
      "type": "node",
      "id": 2188108109,
      "lat": 51.0412555,
      "lon": 3.7271727
    },
    {
      "type": "node",
      "id": 2188108111,
      "lat": 51.0412872,
      "lon": 3.7273918
    },
    {
      "type": "node",
      "id": 2188108112,
      "lat": 51.0412962,
      "lon": 3.7271773
    },
    {
      "type": "node",
      "id": 2188108113,
      "lat": 51.0413021,
      "lon": 3.7275433
    },
    {
      "type": "node",
      "id": 2188108114,
      "lat": 51.0413049,
      "lon": 3.7269732
    },
    {
      "type": "node",
      "id": 2188108115,
      "lat": 51.04132,
      "lon": 3.7265991
    },
    {
      "type": "node",
      "id": 2188108116,
      "lat": 51.0413523,
      "lon": 3.7266014
    },
    {
      "type": "node",
      "id": 2188108118,
      "lat": 51.0414062,
      "lon": 3.7273874
    },
    {
      "type": "node",
      "id": 2188108119,
      "lat": 51.041439,
      "lon": 3.7266207
    },
    {
      "type": "node",
      "id": 2188108124,
      "lat": 51.0418324,
      "lon": 3.7273386
    },
    {
      "type": "node",
      "id": 2188108126,
      "lat": 51.0419943,
      "lon": 3.7272983
    },
    {
      "type": "node",
      "id": 2188108127,
      "lat": 51.0420094,
      "lon": 3.7268006
    },
    {
      "type": "node",
      "id": 2188108128,
      "lat": 51.0421717,
      "lon": 3.7270805
    },
    {
      "type": "node",
      "id": 2188108129,
      "lat": 51.0421727,
      "lon": 3.7270361
    },
    {
      "type": "node",
      "id": 2188108131,
      "lat": 51.0421944,
      "lon": 3.7271053
    },
    {
      "type": "node",
      "id": 2188108132,
      "lat": 51.0421974,
      "lon": 3.727016
    },
    {
      "type": "node",
      "id": 2188108133,
      "lat": 51.0422201,
      "lon": 3.7273097
    },
    {
      "type": "node",
      "id": 2188108134,
      "lat": 51.0422271,
      "lon": 3.7271064
    },
    {
      "type": "node",
      "id": 2188108135,
      "lat": 51.0422281,
      "lon": 3.7270179
    },
    {
      "type": "node",
      "id": 2188108136,
      "lat": 51.042236,
      "lon": 3.7268141
    },
    {
      "type": "node",
      "id": 2188108144,
      "lat": 51.0423014,
      "lon": 3.7266911
    },
    {
      "type": "node",
      "id": 2365554368,
      "lat": 51.0384846,
      "lon": 3.7228763
    },
    {
      "type": "node",
      "id": 2365554382,
      "lat": 51.0380374,
      "lon": 3.7229309
    },
    {
      "type": "node",
      "id": 2365554390,
      "lat": 51.0380125,
      "lon": 3.7226652
    },
    {
      "type": "node",
      "id": 2365554412,
      "lat": 51.0384549,
      "lon": 3.7225589
    },
    {
      "type": "node",
      "id": 2365557203,
      "lat": 51.038381,
      "lon": 3.722932
    },
    {
      "type": "node",
      "id": 2365557205,
      "lat": 51.0380419,
      "lon": 3.7229818
    },
    {
      "type": "node",
      "id": 2365557207,
      "lat": 51.03815,
      "lon": 3.7229866
    },
    {
      "type": "node",
      "id": 2365557209,
      "lat": 51.0381473,
      "lon": 3.7229569
    },
    {
      "type": "node",
      "id": 2365557211,
      "lat": 51.0383781,
      "lon": 3.7229014
    },
    {
      "type": "node",
      "id": 2526655501,
      "lat": 51.0375767,
      "lon": 3.7239124
    },
    {
      "type": "node",
      "id": 2526655502,
      "lat": 51.0375938,
      "lon": 3.7237559
    },
    {
      "type": "node",
      "id": 2526655503,
      "lat": 51.0375875,
      "lon": 3.723942
    },
    {
      "type": "node",
      "id": 2526655504,
      "lat": 51.037593,
      "lon": 3.7236711
    },
    {
      "type": "node",
      "id": 2526655505,
      "lat": 51.0375991,
      "lon": 3.7237878
    },
    {
      "type": "node",
      "id": 2526655507,
      "lat": 51.0376038,
      "lon": 3.7235983
    },
    {
      "type": "node",
      "id": 2526655508,
      "lat": 51.0376232,
      "lon": 3.723863
    },
    {
      "type": "node",
      "id": 2526655509,
      "lat": 51.037615,
      "lon": 3.7235618
    },
    {
      "type": "node",
      "id": 2526655510,
      "lat": 51.0376809,
      "lon": 3.7234659
    },
    {
      "type": "node",
      "id": 2526655511,
      "lat": 51.0377123,
      "lon": 3.7234452
    },
    {
      "type": "node",
      "id": 2526655512,
      "lat": 51.0377412,
      "lon": 3.7234369
    },
    {
      "type": "node",
      "id": 2526655513,
      "lat": 51.0377967,
      "lon": 3.7234395
    },
    {
      "type": "node",
      "id": 2526655514,
      "lat": 51.0378517,
      "lon": 3.723475
    },
    {
      "type": "node",
      "id": 2526655517,
      "lat": 51.0378916,
      "lon": 3.7235264
    },
    {
      "type": "node",
      "id": 2526655519,
      "lat": 51.0379164,
      "lon": 3.7235831
    },
    {
      "type": "node",
      "id": 2526655520,
      "lat": 51.0379603,
      "lon": 3.7235404
    },
    {
      "type": "node",
      "id": 2526655522,
      "lat": 51.0379697,
      "lon": 3.7235666
    },
    {
      "type": "node",
      "id": 2526655523,
      "lat": 51.0379646,
      "lon": 3.7249018
    },
    {
      "type": "node",
      "id": 2526655524,
      "lat": 51.0379804,
      "lon": 3.724938
    },
    {
      "type": "node",
      "id": 2526655525,
      "lat": 51.0380252,
      "lon": 3.724892
    },
    {
      "type": "node",
      "id": 2526655526,
      "lat": 51.0380354,
      "lon": 3.7235064
    },
    {
      "type": "node",
      "id": 2526655527,
      "lat": 51.0380592,
      "lon": 3.7249636
    },
    {
      "type": "node",
      "id": 2526655528,
      "lat": 51.0380824,
      "lon": 3.7249927
    },
    {
      "type": "node",
      "id": 2526655529,
      "lat": 51.0381434,
      "lon": 3.7250363
    },
    {
      "type": "node",
      "id": 2526655530,
      "lat": 51.0381475,
      "lon": 3.7238189
    },
    {
      "type": "node",
      "id": 2526655531,
      "lat": 51.0381613,
      "lon": 3.7250398
    },
    {
      "type": "node",
      "id": 2526655532,
      "lat": 51.0382239,
      "lon": 3.7250317
    },
    {
      "type": "node",
      "id": 2526655533,
      "lat": 51.0382729,
      "lon": 3.7249945
    },
    {
      "type": "node",
      "id": 2526655534,
      "lat": 51.0382786,
      "lon": 3.7236926
    },
    {
      "type": "node",
      "id": 2526655536,
      "lat": 51.0382785,
      "lon": 3.7241627
    },
    {
      "type": "node",
      "id": 2526655537,
      "lat": 51.0382983,
      "lon": 3.724965
    },
    {
      "type": "node",
      "id": 2526655538,
      "lat": 51.0383087,
      "lon": 3.7237688
    },
    {
      "type": "node",
      "id": 2526655539,
      "lat": 51.0383161,
      "lon": 3.7246056
    },
    {
      "type": "node",
      "id": 2526655540,
      "lat": 51.0383268,
      "lon": 3.7249019
    },
    {
      "type": "node",
      "id": 2526655542,
      "lat": 51.038343,
      "lon": 3.7246939
    },
    {
      "type": "node",
      "id": 2526655543,
      "lat": 51.0383466,
      "lon": 3.7248178
    },
    {
      "type": "node",
      "id": 2526655545,
      "lat": 51.0383492,
      "lon": 3.7247348
    },
    {
      "type": "node",
      "id": 2526655546,
      "lat": 51.0383455,
      "lon": 3.7245303
    },
    {
      "type": "node",
      "id": 2526655547,
      "lat": 51.0383599,
      "lon": 3.7245636
    },
    {
      "type": "node",
      "id": 2526655548,
      "lat": 51.0383818,
      "lon": 3.7239619
    },
    {
      "type": "node",
      "id": 2526655550,
      "lat": 51.0384106,
      "lon": 3.7239349
    },
    {
      "type": "node",
      "id": 2526655552,
      "lat": 51.0384109,
      "lon": 3.7240408
    },
    {
      "type": "node",
      "id": 2526655553,
      "lat": 51.0384031,
      "lon": 3.7244735
    },
    {
      "type": "node",
      "id": 3368430140,
      "lat": 51.0418519,
      "lon": 3.7266541
    },
    {
      "type": "node",
      "id": 3368430144,
      "lat": 51.0422595,
      "lon": 3.7266883
    },
    {
      "type": "node",
      "id": 3368459361,
      "lat": 51.0414022,
      "lon": 3.7275473
    },
    {
      "type": "node",
      "id": 3368459362,
      "lat": 51.041421,
      "lon": 3.7270272
    },
    {
      "type": "node",
      "id": 3368459367,
      "lat": 51.0418288,
      "lon": 3.7275434
    },
    {
      "type": "node",
      "id": 3368459370,
      "lat": 51.041854,
      "lon": 3.7265268
    },
    {
      "type": "node",
      "id": 3368459374,
      "lat": 51.0420016,
      "lon": 3.727084
    },
    {
      "type": "node",
      "id": 3368459375,
      "lat": 51.0420041,
      "lon": 3.727016
    },
    {
      "type": "node",
      "id": 3368459376,
      "lat": 51.04201,
      "lon": 3.727084
    },
    {
      "type": "node",
      "id": 3368459377,
      "lat": 51.0420123,
      "lon": 3.7270164
    },
    {
      "type": "node",
      "id": 3368459378,
      "lat": 51.0420274,
      "lon": 3.7270701
    },
    {
      "type": "node",
      "id": 3368459379,
      "lat": 51.0420281,
      "lon": 3.7270333
    },
    {
      "type": "node",
      "id": 5096286545,
      "lat": 51.0383346,
      "lon": 3.7246568
    },
    {
      "type": "node",
      "id": 5096286546,
      "lat": 51.0383251,
      "lon": 3.7246256
    },
    {
      "type": "node",
      "id": 5096286547,
      "lat": 51.0383569,
      "lon": 3.7243465
    },
    {
      "type": "node",
      "id": 5096286566,
      "lat": 51.0380748,
      "lon": 3.7236316
    },
    {
      "type": "node",
      "id": 5096286567,
      "lat": 51.0380811,
      "lon": 3.7236249
    },
    {
      "type": "node",
      "id": 5096286568,
      "lat": 51.0378754,
      "lon": 3.7235016
    },
    {
      "type": "node",
      "id": 5096286569,
      "lat": 51.0378269,
      "lon": 3.7234533
    },
    {
      "type": "node",
      "id": 5096286570,
      "lat": 51.0377708,
      "lon": 3.7234352
    },
    {
      "type": "node",
      "id": 5096286571,
      "lat": 51.0376363,
      "lon": 3.7235244
    },
    {
      "type": "node",
      "id": 5096286572,
      "lat": 51.0376582,
      "lon": 3.7234902
    },
    {
      "type": "node",
      "id": 5096286573,
      "lat": 51.0375967,
      "lon": 3.7236343
    },
    {
      "type": "node",
      "id": 5096286574,
      "lat": 51.0375912,
      "lon": 3.7237135
    },
    {
      "type": "node",
      "id": 5096286575,
      "lat": 51.037611,
      "lon": 3.7238321
    },
    {
      "type": "node",
      "id": 5096286576,
      "lat": 51.037576,
      "lon": 3.7241218
    },
    {
      "type": "node",
      "id": 5096286577,
      "lat": 51.0378657,
      "lon": 3.7248386
    },
    {
      "type": "node",
      "id": 5096286578,
      "lat": 51.0378606,
      "lon": 3.724848
    },
    {
      "type": "node",
      "id": 5096286579,
      "lat": 51.0375828,
      "lon": 3.7241158
    },
    {
      "type": "node",
      "id": 5096286580,
      "lat": 51.0380411,
      "lon": 3.7249285
    },
    {
      "type": "node",
      "id": 5096286581,
      "lat": 51.0381132,
      "lon": 3.7250197
    },
    {
      "type": "node",
      "id": 5096286582,
      "lat": 51.0381895,
      "lon": 3.7250398
    },
    {
      "type": "node",
      "id": 5096286583,
      "lat": 51.0382502,
      "lon": 3.7250163
    },
    {
      "type": "node",
      "id": 5096286584,
      "lat": 51.0383131,
      "lon": 3.7249372
    },
    {
      "type": "node",
      "id": 5096286585,
      "lat": 51.0383409,
      "lon": 3.7248567
    },
    {
      "type": "node",
      "id": 5096286586,
      "lat": 51.0383506,
      "lon": 3.7247749
    },
    {
      "type": "node",
      "id": 5096286587,
      "lat": 51.0383493,
      "lon": 3.7243538
    },
    {
      "type": "node",
      "id": 5096286588,
      "lat": 51.0383731,
      "lon": 3.7238334
    },
    {
      "type": "node",
      "id": 5096286589,
      "lat": 51.0383377,
      "lon": 3.7237413
    },
    {
      "type": "node",
      "id": 2210063065,
      "lat": 51.0411127,
      "lon": 3.7302842
    },
    {
      "type": "node",
      "id": 2210063067,
      "lat": 51.0410054,
      "lon": 3.7300691
    },
    {
      "type": "node",
      "id": 2210063068,
      "lat": 51.0404312,
      "lon": 3.7306219
    },
    {
      "type": "node",
      "id": 2210063069,
      "lat": 51.0408667,
      "lon": 3.731283
    },
    {
      "type": "node",
      "id": 2210063070,
      "lat": 51.0405344,
      "lon": 3.731065
    },
    {
      "type": "node",
      "id": 2210063072,
      "lat": 51.0406305,
      "lon": 3.7297857
    },
    {
      "type": "node",
      "id": 2210063074,
      "lat": 51.0407619,
      "lon": 3.7302134
    },
    {
      "type": "node",
      "id": 2210063075,
      "lat": 51.0403329,
      "lon": 3.7299662
    },
    {
      "type": "node",
      "id": 2210063076,
      "lat": 51.0404845,
      "lon": 3.7305905
    },
    {
      "type": "node",
      "id": 2210063079,
      "lat": 51.0406021,
      "lon": 3.7310251
    },
    {
      "type": "node",
      "id": 2210063080,
      "lat": 51.0412472,
      "lon": 3.7308585
    },
    {
      "type": "node",
      "id": 2210063081,
      "lat": 51.0412674,
      "lon": 3.7311388
    },
    {
      "type": "node",
      "id": 2210063083,
      "lat": 51.040688,
      "lon": 3.731389
    },
    {
      "type": "node",
      "id": 2210063085,
      "lat": 51.0410627,
      "lon": 3.7303138
    },
    {
      "type": "node",
      "id": 2210063086,
      "lat": 51.0412073,
      "lon": 3.7308822
    },
    {
      "type": "node",
      "id": 3351575210,
      "lat": 51.0403601,
      "lon": 3.7303164
    },
    {
      "type": "node",
      "id": 3351575211,
      "lat": 51.040392,
      "lon": 3.7302015
    },
    {
      "type": "node",
      "id": 3351575212,
      "lat": 51.0404128,
      "lon": 3.7302853
    },
    {
      "type": "node",
      "id": 3351575214,
      "lat": 51.0404192,
      "lon": 3.7305703
    },
    {
      "type": "node",
      "id": 3351575216,
      "lat": 51.0404725,
      "lon": 3.730539
    },
    {
      "type": "node",
      "id": 3351575395,
      "lat": 51.0409412,
      "lon": 3.7313322
    },
    {
      "type": "node",
      "id": 3351582640,
      "lat": 51.0404689,
      "lon": 3.7300535
    },
    {
      "type": "node",
      "id": 3351582642,
      "lat": 51.0405162,
      "lon": 3.7298497
    },
    {
      "type": "node",
      "id": 3367520196,
      "lat": 51.0407193,
      "lon": 3.7301452
    },
    {
      "type": "node",
      "id": 3367520697,
      "lat": 51.0404783,
      "lon": 3.7305642
    },
    {
      "type": "node",
      "id": 3367571593,
      "lat": 51.0407369,
      "lon": 3.7313599
    },
    {
      "type": "node",
      "id": 3368338974,
      "lat": 51.0405465,
      "lon": 3.7301033
    },
    {
      "type": "node",
      "id": 3368338975,
      "lat": 51.0406644,
      "lon": 3.7299228
    },
    {
      "type": "node",
      "id": 3370852258,
      "lat": 51.0406736,
      "lon": 3.7299598
    },
    {
      "type": "node",
      "id": 6568953846,
      "lat": 51.0407559,
      "lon": 3.7301886
    },
    {
      "type": "node",
      "id": 6568953847,
      "lat": 51.040745,
      "lon": 3.7301432
    },
    {
      "type": "node",
      "id": 6568953848,
      "lat": 51.0407343,
      "lon": 3.7301363
    },
    {
      "type": "node",
      "id": 1271963979,
      "lat": 51.0477919,
      "lon": 3.7280638
    },
    {
      "type": "node",
      "id": 1271963984,
      "lat": 51.0478359,
      "lon": 3.7273676
    },
    {
      "type": "node",
      "id": 1271963989,
      "lat": 51.0477432,
      "lon": 3.7285622
    },
    {
      "type": "node",
      "id": 1271963990,
      "lat": 51.0474867,
      "lon": 3.7284526
    },
    {
      "type": "node",
      "id": 1804908655,
      "lat": 51.0473902,
      "lon": 3.7275999
    },
    {
      "type": "node",
      "id": 1804908658,
      "lat": 51.047517,
      "lon": 3.7276108
    },
    {
      "type": "node",
      "id": 2402543238,
      "lat": 51.0478392,
      "lon": 3.7276338
    },
    {
      "type": "node",
      "id": 2402543256,
      "lat": 51.0489487,
      "lon": 3.7273189
    },
    {
      "type": "node",
      "id": 2587463284,
      "lat": 51.0478423,
      "lon": 3.7279176
    },
    {
      "type": "node",
      "id": 2587463286,
      "lat": 51.0478441,
      "lon": 3.728073
    },
    {
      "type": "node",
      "id": 2607753133,
      "lat": 51.0489029,
      "lon": 3.7271771
    },
    {
      "type": "node",
      "id": 2607753136,
      "lat": 51.0490299,
      "lon": 3.7273507
    },
    {
      "type": "node",
      "id": 3192105302,
      "lat": 51.0473997,
      "lon": 3.7273016
    },
    {
      "type": "node",
      "id": 4254770997,
      "lat": 51.0490346,
      "lon": 3.7273644
    },
    {
      "type": "node",
      "id": 4897571231,
      "lat": 51.0460113,
      "lon": 3.7288727
    },
    {
      "type": "node",
      "id": 4897571237,
      "lat": 51.0459469,
      "lon": 3.7288653
    },
    {
      "type": "node",
      "id": 4917652358,
      "lat": 51.0491483,
      "lon": 3.7276963
    },
    {
      "type": "node",
      "id": 4917652359,
      "lat": 51.049123,
      "lon": 3.7276255
    },
    {
      "type": "node",
      "id": 4917652360,
      "lat": 51.0490916,
      "lon": 3.7275328
    },
    {
      "type": "node",
      "id": 4917652362,
      "lat": 51.0489731,
      "lon": 3.7273945
    },
    {
      "type": "node",
      "id": 4917652365,
      "lat": 51.0487969,
      "lon": 3.7272534
    },
    {
      "type": "node",
      "id": 4917652366,
      "lat": 51.0488711,
      "lon": 3.7275288
    },
    {
      "type": "node",
      "id": 4917652367,
      "lat": 51.0488844,
      "lon": 3.7275839
    },
    {
      "type": "node",
      "id": 4917652368,
      "lat": 51.0488333,
      "lon": 3.7276336
    },
    {
      "type": "node",
      "id": 4917652369,
      "lat": 51.0489045,
      "lon": 3.7278068
    },
    {
      "type": "node",
      "id": 4917652370,
      "lat": 51.0489108,
      "lon": 3.7278003
    },
    {
      "type": "node",
      "id": 4917652371,
      "lat": 51.0489281,
      "lon": 3.7278444
    },
    {
      "type": "node",
      "id": 4917652372,
      "lat": 51.0489528,
      "lon": 3.7278207
    },
    {
      "type": "node",
      "id": 4917652373,
      "lat": 51.0489806,
      "lon": 3.7278935
    },
    {
      "type": "node",
      "id": 4917652374,
      "lat": 51.0489702,
      "lon": 3.7279036
    },
    {
      "type": "node",
      "id": 4917652375,
      "lat": 51.0489831,
      "lon": 3.7279399
    },
    {
      "type": "node",
      "id": 4917652376,
      "lat": 51.0489659,
      "lon": 3.7279552
    },
    {
      "type": "node",
      "id": 4917652377,
      "lat": 51.0489763,
      "lon": 3.7279846
    },
    {
      "type": "node",
      "id": 4917652378,
      "lat": 51.0489778,
      "lon": 3.7279831
    },
    {
      "type": "node",
      "id": 4917652379,
      "lat": 51.0489873,
      "lon": 3.7280086
    },
    {
      "type": "node",
      "id": 4917652380,
      "lat": 51.049192,
      "lon": 3.7278187
    },
    {
      "type": "node",
      "id": 4917652381,
      "lat": 51.0491959,
      "lon": 3.727815
    },
    {
      "type": "node",
      "id": 4917652382,
      "lat": 51.0492027,
      "lon": 3.7278087
    },
    {
      "type": "node",
      "id": 4917652383,
      "lat": 51.0492061,
      "lon": 3.7278189
    },
    {
      "type": "node",
      "id": 4917652384,
      "lat": 51.049227,
      "lon": 3.7278055
    },
    {
      "type": "node",
      "id": 4917652385,
      "lat": 51.0492244,
      "lon": 3.7277968
    },
    {
      "type": "node",
      "id": 4917652386,
      "lat": 51.049219,
      "lon": 3.7278005
    },
    {
      "type": "node",
      "id": 4917652387,
      "lat": 51.0492141,
      "lon": 3.727782
    },
    {
      "type": "node",
      "id": 4917652388,
      "lat": 51.049189,
      "lon": 3.7278103
    },
    {
      "type": "node",
      "id": 4917652389,
      "lat": 51.0491684,
      "lon": 3.7277527
    },
    {
      "type": "node",
      "id": 4917652390,
      "lat": 51.0491534,
      "lon": 3.7277108
    },
    {
      "type": "node",
      "id": 4917652391,
      "lat": 51.0491673,
      "lon": 3.7277015
    },
    {
      "type": "node",
      "id": 4917652392,
      "lat": 51.0491621,
      "lon": 3.7276866
    },
    {
      "type": "node",
      "id": 6083587784,
      "lat": 51.0477784,
      "lon": 3.7281763
    },
    {
      "type": "node",
      "id": 6083587785,
      "lat": 51.0476503,
      "lon": 3.7285468
    },
    {
      "type": "node",
      "id": 6083587786,
      "lat": 51.04748,
      "lon": 3.7285554
    },
    {
      "type": "node",
      "id": 6083587787,
      "lat": 51.0476475,
      "lon": 3.7285918
    },
    {
      "type": "node",
      "id": 6083587789,
      "lat": 51.047841,
      "lon": 3.7277992
    },
    {
      "type": "node",
      "id": 6556051623,
      "lat": 51.0475165,
      "lon": 3.7273193
    },
    {
      "type": "node",
      "id": 6556051626,
      "lat": 51.0474773,
      "lon": 3.7276074
    },
    {
      "type": "node",
      "id": 4897571227,
      "lat": 51.045934,
      "lon": 3.7290663
    },
    {
      "type": "node",
      "id": 4897571228,
      "lat": 51.0459643,
      "lon": 3.7290754
    },
    {
      "type": "node",
      "id": 4897571229,
      "lat": 51.045968,
      "lon": 3.7290164
    },
    {
      "type": "node",
      "id": 4897571230,
      "lat": 51.0460019,
      "lon": 3.7290191
    },
    {
      "type": "node",
      "id": 4897571236,
      "lat": 51.0459375,
      "lon": 3.7290106
    },
    {
      "type": "node",
      "id": 1212212206,
      "lat": 51.0535194,
      "lon": 3.7259676
    },
    {
      "type": "node",
      "id": 1461088533,
      "lat": 51.0515793,
      "lon": 3.7229715
    },
    {
      "type": "node",
      "id": 1461088537,
      "lat": 51.0514618,
      "lon": 3.7233663
    },
    {
      "type": "node",
      "id": 1461088544,
      "lat": 51.0514996,
      "lon": 3.7229673
    },
    {
      "type": "node",
      "id": 1461088545,
      "lat": 51.0515734,
      "lon": 3.7233712
    },
    {
      "type": "node",
      "id": 1461088558,
      "lat": 51.0514802,
      "lon": 3.7231693
    },
    {
      "type": "node",
      "id": 2617908127,
      "lat": 51.0516126,
      "lon": 3.7230836
    },
    {
      "type": "node",
      "id": 3062510097,
      "lat": 51.0537499,
      "lon": 3.7247888
    },
    {
      "type": "node",
      "id": 3062510102,
      "lat": 51.0536377,
      "lon": 3.7246577
    },
    {
      "type": "node",
      "id": 4255945659,
      "lat": 51.0515761,
      "lon": 3.7231885
    },
    {
      "type": "node",
      "id": 4408511116,
      "lat": 51.0535123,
      "lon": 3.7258193
    },
    {
      "type": "node",
      "id": 4408511117,
      "lat": 51.0535248,
      "lon": 3.7257751
    },
    {
      "type": "node",
      "id": 4408511118,
      "lat": 51.0535286,
      "lon": 3.7257791
    },
    {
      "type": "node",
      "id": 4408511119,
      "lat": 51.0535288,
      "lon": 3.7257649
    },
    {
      "type": "node",
      "id": 4408511120,
      "lat": 51.0535328,
      "lon": 3.725769
    },
    {
      "type": "node",
      "id": 4408511121,
      "lat": 51.0535332,
      "lon": 3.7258805
    },
    {
      "type": "node",
      "id": 4408511122,
      "lat": 51.0535364,
      "lon": 3.7258841
    },
    {
      "type": "node",
      "id": 4408511123,
      "lat": 51.0535416,
      "lon": 3.7257342
    },
    {
      "type": "node",
      "id": 4408511124,
      "lat": 51.0535446,
      "lon": 3.7258521
    },
    {
      "type": "node",
      "id": 4408511125,
      "lat": 51.0535456,
      "lon": 3.7257377
    },
    {
      "type": "node",
      "id": 4408511126,
      "lat": 51.0535456,
      "lon": 3.7257242
    },
    {
      "type": "node",
      "id": 4408511127,
      "lat": 51.0535493,
      "lon": 3.7257283
    },
    {
      "type": "node",
      "id": 4408511128,
      "lat": 51.0535655,
      "lon": 3.7256891
    },
    {
      "type": "node",
      "id": 4408511129,
      "lat": 51.0535975,
      "lon": 3.7257224
    },
    {
      "type": "node",
      "id": 4408511130,
      "lat": 51.0536092,
      "lon": 3.7256939
    },
    {
      "type": "node",
      "id": 4408511131,
      "lat": 51.0536129,
      "lon": 3.7256979
    },
    {
      "type": "node",
      "id": 4408511132,
      "lat": 51.0536422,
      "lon": 3.7256268
    },
    {
      "type": "node",
      "id": 4408511133,
      "lat": 51.0536535,
      "lon": 3.7256383
    },
    {
      "type": "node",
      "id": 4408537038,
      "lat": 51.0534944,
      "lon": 3.7260294
    },
    {
      "type": "node",
      "id": 4408537041,
      "lat": 51.0536492,
      "lon": 3.7261227
    },
    {
      "type": "node",
      "id": 4922716906,
      "lat": 51.0539453,
      "lon": 3.7258059
    },
    {
      "type": "node",
      "id": 4922716907,
      "lat": 51.0541854,
      "lon": 3.7260304
    },
    {
      "type": "node",
      "id": 4922731831,
      "lat": 51.0535072,
      "lon": 3.725955
    },
    {
      "type": "node",
      "id": 4922731832,
      "lat": 51.0536545,
      "lon": 3.7261076
    },
    {
      "type": "node",
      "id": 4922731834,
      "lat": 51.0537027,
      "lon": 3.7262413
    },
    {
      "type": "node",
      "id": 4922731835,
      "lat": 51.0537272,
      "lon": 3.7261768
    },
    {
      "type": "node",
      "id": 4922731836,
      "lat": 51.0538451,
      "lon": 3.7262965
    },
    {
      "type": "node",
      "id": 4922731837,
      "lat": 51.053867,
      "lon": 3.7262869
    },
    {
      "type": "node",
      "id": 4922731838,
      "lat": 51.0538994,
      "lon": 3.7262053
    },
    {
      "type": "node",
      "id": 4922731839,
      "lat": 51.053945,
      "lon": 3.7262535
    },
    {
      "type": "node",
      "id": 4922731840,
      "lat": 51.0539662,
      "lon": 3.7262451
    },
    {
      "type": "node",
      "id": 4922731841,
      "lat": 51.0540404,
      "lon": 3.7260602
    },
    {
      "type": "node",
      "id": 4922731842,
      "lat": 51.0541915,
      "lon": 3.7261664
    },
    {
      "type": "node",
      "id": 4922731843,
      "lat": 51.0542192,
      "lon": 3.7260536
    },
    {
      "type": "node",
      "id": 4922731847,
      "lat": 51.0537841,
      "lon": 3.7257729
    },
    {
      "type": "node",
      "id": 4922731849,
      "lat": 51.0537932,
      "lon": 3.7257528
    },
    {
      "type": "node",
      "id": 4922731873,
      "lat": 51.0536779,
      "lon": 3.7255819
    },
    {
      "type": "node",
      "id": 4922731875,
      "lat": 51.0537241,
      "lon": 3.7256291
    },
    {
      "type": "node",
      "id": 4922731877,
      "lat": 51.0538538,
      "lon": 3.725806
    },
    {
      "type": "node",
      "id": 4922731883,
      "lat": 51.0538627,
      "lon": 3.7257798
    },
    {
      "type": "node",
      "id": 4922731893,
      "lat": 51.053918,
      "lon": 3.7257809
    },
    {
      "type": "node",
      "id": 4922731918,
      "lat": 51.0538786,
      "lon": 3.7251544
    },
    {
      "type": "node",
      "id": 4922731919,
      "lat": 51.0538051,
      "lon": 3.7250678
    },
    {
      "type": "node",
      "id": 4922731942,
      "lat": 51.053684,
      "lon": 3.7249251
    },
    {
      "type": "node",
      "id": 4922731943,
      "lat": 51.0535727,
      "lon": 3.7247942
    },
    {
      "type": "node",
      "id": 4922731944,
      "lat": 51.0535511,
      "lon": 3.7248406
    },
    {
      "type": "node",
      "id": 4922731945,
      "lat": 51.0535276,
      "lon": 3.7248911
    },
    {
      "type": "node",
      "id": 4922731946,
      "lat": 51.0535197,
      "lon": 3.7249082
    },
    {
      "type": "node",
      "id": 4922731947,
      "lat": 51.053504,
      "lon": 3.7249401
    },
    {
      "type": "node",
      "id": 4922731948,
      "lat": 51.0535353,
      "lon": 3.7249762
    },
    {
      "type": "node",
      "id": 4922731949,
      "lat": 51.0535305,
      "lon": 3.7249881
    },
    {
      "type": "node",
      "id": 4922731950,
      "lat": 51.0535311,
      "lon": 3.7249889
    },
    {
      "type": "node",
      "id": 4922731951,
      "lat": 51.0535365,
      "lon": 3.7249952
    },
    {
      "type": "node",
      "id": 4922731952,
      "lat": 51.0535419,
      "lon": 3.7249837
    },
    {
      "type": "node",
      "id": 4922731953,
      "lat": 51.0535618,
      "lon": 3.7250071
    },
    {
      "type": "node",
      "id": 4922731954,
      "lat": 51.0535565,
      "lon": 3.7250186
    },
    {
      "type": "node",
      "id": 4922731955,
      "lat": 51.053563,
      "lon": 3.7250263
    },
    {
      "type": "node",
      "id": 4922731956,
      "lat": 51.0535682,
      "lon": 3.7250149
    },
    {
      "type": "node",
      "id": 4922731957,
      "lat": 51.0535881,
      "lon": 3.7250383
    },
    {
      "type": "node",
      "id": 4922731958,
      "lat": 51.053583,
      "lon": 3.7250494
    },
    {
      "type": "node",
      "id": 4922731959,
      "lat": 51.0535896,
      "lon": 3.7250572
    },
    {
      "type": "node",
      "id": 4922731960,
      "lat": 51.0535946,
      "lon": 3.7250464
    },
    {
      "type": "node",
      "id": 4922731961,
      "lat": 51.0536145,
      "lon": 3.72507
    },
    {
      "type": "node",
      "id": 4922731962,
      "lat": 51.053609,
      "lon": 3.7250819
    },
    {
      "type": "node",
      "id": 4922731963,
      "lat": 51.0536151,
      "lon": 3.725089
    },
    {
      "type": "node",
      "id": 4922731964,
      "lat": 51.053621,
      "lon": 3.7250763
    },
    {
      "type": "node",
      "id": 4922731965,
      "lat": 51.0536409,
      "lon": 3.7250997
    },
    {
      "type": "node",
      "id": 4922731966,
      "lat": 51.053635,
      "lon": 3.7251123
    },
    {
      "type": "node",
      "id": 4922731967,
      "lat": 51.0536416,
      "lon": 3.72512
    },
    {
      "type": "node",
      "id": 4922731968,
      "lat": 51.0536472,
      "lon": 3.7251079
    },
    {
      "type": "node",
      "id": 4922731969,
      "lat": 51.0536671,
      "lon": 3.7251313
    },
    {
      "type": "node",
      "id": 4922731970,
      "lat": 51.0536614,
      "lon": 3.7251436
    },
    {
      "type": "node",
      "id": 4922731971,
      "lat": 51.0536678,
      "lon": 3.7251511
    },
    {
      "type": "node",
      "id": 4922731972,
      "lat": 51.0536735,
      "lon": 3.7251388
    },
    {
      "type": "node",
      "id": 4922731973,
      "lat": 51.0536936,
      "lon": 3.7251626
    },
    {
      "type": "node",
      "id": 4922731974,
      "lat": 51.053688,
      "lon": 3.7251747
    },
    {
      "type": "node",
      "id": 4922731976,
      "lat": 51.0536946,
      "lon": 3.7251824
    },
    {
      "type": "node",
      "id": 4922731977,
      "lat": 51.0537003,
      "lon": 3.7251701
    },
    {
      "type": "node",
      "id": 4922731978,
      "lat": 51.0537202,
      "lon": 3.7251934
    },
    {
      "type": "node",
      "id": 4922731979,
      "lat": 51.0537145,
      "lon": 3.7252055
    },
    {
      "type": "node",
      "id": 4922731980,
      "lat": 51.0537209,
      "lon": 3.7252131
    },
    {
      "type": "node",
      "id": 4922731981,
      "lat": 51.0537266,
      "lon": 3.7252008
    },
    {
      "type": "node",
      "id": 4922731982,
      "lat": 51.0537466,
      "lon": 3.7252242
    },
    {
      "type": "node",
      "id": 4922731983,
      "lat": 51.0537409,
      "lon": 3.7252364
    },
    {
      "type": "node",
      "id": 4922731985,
      "lat": 51.0537474,
      "lon": 3.7252441
    },
    {
      "type": "node",
      "id": 4922731986,
      "lat": 51.0537529,
      "lon": 3.7252322
    },
    {
      "type": "node",
      "id": 4922731987,
      "lat": 51.0537729,
      "lon": 3.7252557
    },
    {
      "type": "node",
      "id": 4922731988,
      "lat": 51.0537675,
      "lon": 3.7252675
    },
    {
      "type": "node",
      "id": 4922731990,
      "lat": 51.0537739,
      "lon": 3.725275
    },
    {
      "type": "node",
      "id": 4922731991,
      "lat": 51.0537792,
      "lon": 3.7252634
    },
    {
      "type": "node",
      "id": 4922731992,
      "lat": 51.0538107,
      "lon": 3.7253004
    },
    {
      "type": "node",
      "id": 4922731993,
      "lat": 51.0538302,
      "lon": 3.7252584
    },
    {
      "type": "node",
      "id": 4922731994,
      "lat": 51.0538606,
      "lon": 3.7251931
    },
    {
      "type": "node",
      "id": 4922759003,
      "lat": 51.0537367,
      "lon": 3.7248141
    },
    {
      "type": "node",
      "id": 4922759004,
      "lat": 51.0537437,
      "lon": 3.7247991
    },
    {
      "type": "node",
      "id": 4922759005,
      "lat": 51.053745,
      "lon": 3.7248006
    },
    {
      "type": "node",
      "id": 5607863285,
      "lat": 51.0538453,
      "lon": 3.7252259
    },
    {
      "type": "node",
      "id": 5607863291,
      "lat": 51.0535392,
      "lon": 3.7257533
    },
    {
      "type": "node",
      "id": 5607863293,
      "lat": 51.0535352,
      "lon": 3.7248749
    },
    {
      "type": "node",
      "id": 7449153422,
      "lat": 51.0537755,
      "lon": 3.7252714
    },
    {
      "type": "node",
      "id": 8375627803,
      "lat": 51.0537993,
      "lon": 3.7252871
    },
    {
      "type": "node",
      "id": 8375669117,
      "lat": 51.0535146,
      "lon": 3.7249523
    },
    {
      "type": "node",
      "id": 8375719991,
      "lat": 51.053763,
      "lon": 3.7250182
    },
    {
      "type": "node",
      "id": 8378251813,
      "lat": 51.0536643,
      "lon": 3.7246887
    },
    {
      "type": "node",
      "id": 8378251814,
      "lat": 51.0536182,
      "lon": 3.7246987
    },
    {
      "type": "node",
      "id": 8378251815,
      "lat": 51.0535989,
      "lon": 3.724825
    },
    {
      "type": "node",
      "id": 8378251816,
      "lat": 51.0535922,
      "lon": 3.7247532
    },
    {
      "type": "node",
      "id": 8378305417,
      "lat": 51.0536579,
      "lon": 3.7248944
    },
    {
      "type": "node",
      "id": 8378305418,
      "lat": 51.0537038,
      "lon": 3.7248835
    },
    {
      "type": "node",
      "id": 8378305419,
      "lat": 51.0537287,
      "lon": 3.724831
    },
    {
      "type": "node",
      "id": 8378305420,
      "lat": 51.0537224,
      "lon": 3.7247566
    },
    {
      "type": "node",
      "id": 9177877924,
      "lat": 51.053694,
      "lon": 3.7251817
    },
    {
      "type": "node",
      "id": 9177877925,
      "lat": 51.0536887,
      "lon": 3.7251755
    },
    {
      "type": "node",
      "id": 9177877926,
      "lat": 51.0536672,
      "lon": 3.7251504
    },
    {
      "type": "node",
      "id": 9177877927,
      "lat": 51.0536621,
      "lon": 3.7251445
    },
    {
      "type": "node",
      "id": 9177877928,
      "lat": 51.0536409,
      "lon": 3.7251192
    },
    {
      "type": "node",
      "id": 9177877929,
      "lat": 51.0536359,
      "lon": 3.7251134
    },
    {
      "type": "node",
      "id": 9177877930,
      "lat": 51.0536147,
      "lon": 3.7250885
    },
    {
      "type": "node",
      "id": 9177877931,
      "lat": 51.0535885,
      "lon": 3.7250559
    },
    {
      "type": "node",
      "id": 9177877932,
      "lat": 51.0536095,
      "lon": 3.7250824
    },
    {
      "type": "node",
      "id": 9177877934,
      "lat": 51.0535834,
      "lon": 3.7250499
    },
    {
      "type": "node",
      "id": 9177877935,
      "lat": 51.0535624,
      "lon": 3.7250255
    },
    {
      "type": "node",
      "id": 9177877936,
      "lat": 51.0535572,
      "lon": 3.7250195
    },
    {
      "type": "node",
      "id": 9439784984,
      "lat": 51.0535892,
      "lon": 3.72604
    },
    {
      "type": "node",
      "id": 9439784985,
      "lat": 51.0536647,
      "lon": 3.7261367
    },
    {
      "type": "node",
      "id": 9439784986,
      "lat": 51.0536478,
      "lon": 3.7261842
    },
    {
      "type": "node",
      "id": 9439784991,
      "lat": 51.0539049,
      "lon": 3.7258178
    },
    {
      "type": "node",
      "id": 9439784995,
      "lat": 51.0537023,
      "lon": 3.7256886
    },
    {
      "type": "node",
      "id": 9439784996,
      "lat": 51.0535832,
      "lon": 3.7260576
    },
    {
      "type": "node",
      "id": 9439784997,
      "lat": 51.0535722,
      "lon": 3.7260693
    },
    {
      "type": "node",
      "id": 9439784998,
      "lat": 51.0535422,
      "lon": 3.7260775
    },
    {
      "type": "node",
      "id": 10815282267,
      "lat": 51.0536334,
      "lon": 3.7246668
    },
    {
      "type": "node",
      "id": 10815282268,
      "lat": 51.0536294,
      "lon": 3.7246751
    },
    {
      "type": "node",
      "id": 205272506,
      "lat": 51.0594682,
      "lon": 3.7287927
    },
    {
      "type": "node",
      "id": 4580267386,
      "lat": 51.0594961,
      "lon": 3.7287134
    },
    {
      "type": "node",
      "id": 4580267387,
      "lat": 51.0594687,
      "lon": 3.7288212
    },
    {
      "type": "node",
      "id": 4853953494,
      "lat": 51.0576878,
      "lon": 3.7231543
    },
    {
      "type": "node",
      "id": 4853953495,
      "lat": 51.0577286,
      "lon": 3.7231042
    },
    {
      "type": "node",
      "id": 4853953496,
      "lat": 51.0577361,
      "lon": 3.7231197
    },
    {
      "type": "node",
      "id": 4853953497,
      "lat": 51.0576115,
      "lon": 3.7233403
    },
    {
      "type": "node",
      "id": 4853953498,
      "lat": 51.0575865,
      "lon": 3.7233847
    },
    {
      "type": "node",
      "id": 4853953499,
      "lat": 51.0575756,
      "lon": 3.7234039
    },
    {
      "type": "node",
      "id": 4853953500,
      "lat": 51.0574926,
      "lon": 3.7232966
    },
    {
      "type": "node",
      "id": 4853953501,
      "lat": 51.0574535,
      "lon": 3.7233455
    },
    {
      "type": "node",
      "id": 4853953502,
      "lat": 51.0574487,
      "lon": 3.7233286
    },
    {
      "type": "node",
      "id": 4853953503,
      "lat": 51.0574341,
      "lon": 3.7233271
    },
    {
      "type": "node",
      "id": 4853953504,
      "lat": 51.0574272,
      "lon": 3.7233431
    },
    {
      "type": "node",
      "id": 4853953505,
      "lat": 51.0574035,
      "lon": 3.7233129
    },
    {
      "type": "node",
      "id": 4853953506,
      "lat": 51.0573951,
      "lon": 3.7233247
    },
    {
      "type": "node",
      "id": 4853953507,
      "lat": 51.05738,
      "lon": 3.7233036
    },
    {
      "type": "node",
      "id": 4853953508,
      "lat": 51.0575713,
      "lon": 3.7230484
    },
    {
      "type": "node",
      "id": 4853953509,
      "lat": 51.0575747,
      "lon": 3.7230507
    },
    {
      "type": "node",
      "id": 4853953510,
      "lat": 51.057601,
      "lon": 3.7230124
    },
    {
      "type": "node",
      "id": 4853953511,
      "lat": 51.057582,
      "lon": 3.7229794
    },
    {
      "type": "node",
      "id": 4853953513,
      "lat": 51.0575979,
      "lon": 3.7229583
    },
    {
      "type": "node",
      "id": 4853953515,
      "lat": 51.0575356,
      "lon": 3.7230065
    },
    {
      "type": "node",
      "id": 4853953516,
      "lat": 51.0574824,
      "lon": 3.7230707
    },
    {
      "type": "node",
      "id": 4853953519,
      "lat": 51.0573065,
      "lon": 3.7232834
    },
    {
      "type": "node",
      "id": 4853953520,
      "lat": 51.0573694,
      "lon": 3.7233625
    },
    {
      "type": "node",
      "id": 4853953621,
      "lat": 51.057505,
      "lon": 3.7235365
    },
    {
      "type": "node",
      "id": 4853953622,
      "lat": 51.0577933,
      "lon": 3.7231828
    },
    {
      "type": "node",
      "id": 4853954028,
      "lat": 51.0577198,
      "lon": 3.7233212
    },
    {
      "type": "node",
      "id": 4853954038,
      "lat": 51.0576674,
      "lon": 3.7234208
    },
    {
      "type": "node",
      "id": 4853954039,
      "lat": 51.0576547,
      "lon": 3.7234034
    },
    {
      "type": "node",
      "id": 4853954040,
      "lat": 51.0576411,
      "lon": 3.7234358
    },
    {
      "type": "node",
      "id": 4853954044,
      "lat": 51.0577018,
      "lon": 3.7233551
    },
    {
      "type": "node",
      "id": 4853954096,
      "lat": 51.0576285,
      "lon": 3.723424
    },
    {
      "type": "node",
      "id": 4853954097,
      "lat": 51.0576009,
      "lon": 3.7233982
    },
    {
      "type": "node",
      "id": 4853954098,
      "lat": 51.0575412,
      "lon": 3.7235685
    },
    {
      "type": "node",
      "id": 4853954100,
      "lat": 51.0576371,
      "lon": 3.723432
    },
    {
      "type": "node",
      "id": 4853954468,
      "lat": 51.0575744,
      "lon": 3.7229594
    },
    {
      "type": "node",
      "id": 4853954469,
      "lat": 51.0576458,
      "lon": 3.7228732
    },
    {
      "type": "node",
      "id": 4933337673,
      "lat": 51.0593142,
      "lon": 3.7289028
    },
    {
      "type": "node",
      "id": 4933337674,
      "lat": 51.0593164,
      "lon": 3.7289048
    },
    {
      "type": "node",
      "id": 4933337675,
      "lat": 51.0593142,
      "lon": 3.728911
    },
    {
      "type": "node",
      "id": 4933337676,
      "lat": 51.0593134,
      "lon": 3.7289102
    },
    {
      "type": "node",
      "id": 4933337677,
      "lat": 51.0593126,
      "lon": 3.7289126
    },
    {
      "type": "node",
      "id": 4933337678,
      "lat": 51.059311,
      "lon": 3.7289113
    },
    {
      "type": "node",
      "id": 4933337679,
      "lat": 51.0593052,
      "lon": 3.7289285
    },
    {
      "type": "node",
      "id": 4933337680,
      "lat": 51.0593058,
      "lon": 3.7289291
    },
    {
      "type": "node",
      "id": 4933337681,
      "lat": 51.0592821,
      "lon": 3.7289971
    },
    {
      "type": "node",
      "id": 4933337682,
      "lat": 51.0592814,
      "lon": 3.7289964
    },
    {
      "type": "node",
      "id": 4933337714,
      "lat": 51.0593944,
      "lon": 3.7289956
    },
    {
      "type": "node",
      "id": 4933337715,
      "lat": 51.0594071,
      "lon": 3.7289595
    },
    {
      "type": "node",
      "id": 4933337716,
      "lat": 51.0594465,
      "lon": 3.7289929
    },
    {
      "type": "node",
      "id": 4933337717,
      "lat": 51.0594804,
      "lon": 3.728896
    },
    {
      "type": "node",
      "id": 4933337718,
      "lat": 51.059452,
      "lon": 3.7288702
    },
    {
      "type": "node",
      "id": 4933337719,
      "lat": 51.0594759,
      "lon": 3.7287999
    },
    {
      "type": "node",
      "id": 4933337849,
      "lat": 51.0594369,
      "lon": 3.7285556
    },
    {
      "type": "node",
      "id": 4933337850,
      "lat": 51.0595219,
      "lon": 3.7286399
    },
    {
      "type": "node",
      "id": 4580267789,
      "lat": 51.0593661,
      "lon": 3.7295731
    },
    {
      "type": "node",
      "id": 4580267790,
      "lat": 51.0593086,
      "lon": 3.7296738
    },
    {
      "type": "node",
      "id": 4933298188,
      "lat": 51.0591887,
      "lon": 3.7295017
    },
    {
      "type": "node",
      "id": 4933298189,
      "lat": 51.0591264,
      "lon": 3.7294195
    },
    {
      "type": "node",
      "id": 4933337683,
      "lat": 51.0592753,
      "lon": 3.7290135
    },
    {
      "type": "node",
      "id": 4933337684,
      "lat": 51.059276,
      "lon": 3.7290141
    },
    {
      "type": "node",
      "id": 4933337685,
      "lat": 51.0592524,
      "lon": 3.7290819
    },
    {
      "type": "node",
      "id": 4933337686,
      "lat": 51.0592516,
      "lon": 3.7290812
    },
    {
      "type": "node",
      "id": 4933337687,
      "lat": 51.0592456,
      "lon": 3.7290985
    },
    {
      "type": "node",
      "id": 4933337688,
      "lat": 51.0592462,
      "lon": 3.7290991
    },
    {
      "type": "node",
      "id": 4933337689,
      "lat": 51.0592226,
      "lon": 3.7291669
    },
    {
      "type": "node",
      "id": 4933337690,
      "lat": 51.0592218,
      "lon": 3.7291662
    },
    {
      "type": "node",
      "id": 4933337691,
      "lat": 51.0592158,
      "lon": 3.7291834
    },
    {
      "type": "node",
      "id": 4933337692,
      "lat": 51.0592165,
      "lon": 3.7291841
    },
    {
      "type": "node",
      "id": 4933337693,
      "lat": 51.0591927,
      "lon": 3.7292521
    },
    {
      "type": "node",
      "id": 4933337694,
      "lat": 51.0591919,
      "lon": 3.7292514
    },
    {
      "type": "node",
      "id": 4933337695,
      "lat": 51.0591854,
      "lon": 3.7292699
    },
    {
      "type": "node",
      "id": 4933337696,
      "lat": 51.0592712,
      "lon": 3.7293449
    },
    {
      "type": "node",
      "id": 4933337697,
      "lat": 51.059247,
      "lon": 3.729418
    },
    {
      "type": "node",
      "id": 4933337698,
      "lat": 51.0591783,
      "lon": 3.7293289
    },
    {
      "type": "node",
      "id": 4933337699,
      "lat": 51.0591344,
      "lon": 3.7293134
    },
    {
      "type": "node",
      "id": 4933337700,
      "lat": 51.0591317,
      "lon": 3.7293199
    },
    {
      "type": "node",
      "id": 4933337701,
      "lat": 51.0591325,
      "lon": 3.7293208
    },
    {
      "type": "node",
      "id": 4933337702,
      "lat": 51.0591077,
      "lon": 3.7293829
    },
    {
      "type": "node",
      "id": 4933337703,
      "lat": 51.0591069,
      "lon": 3.7293821
    },
    {
      "type": "node",
      "id": 4933337704,
      "lat": 51.0591043,
      "lon": 3.7293884
    },
    {
      "type": "node",
      "id": 4933337710,
      "lat": 51.059445,
      "lon": 3.7296801
    },
    {
      "type": "node",
      "id": 4933337712,
      "lat": 51.0594594,
      "lon": 3.7296996
    },
    {
      "type": "node",
      "id": 4933337713,
      "lat": 51.0596375,
      "lon": 3.7292085
    },
    {
      "type": "node",
      "id": 9381669620,
      "lat": 51.0644718,
      "lon": 3.7248304
    },
    {
      "type": "node",
      "id": 9381669621,
      "lat": 51.064455,
      "lon": 3.7248965
    },
    {
      "type": "node",
      "id": 9381669622,
      "lat": 51.064437,
      "lon": 3.7248849
    },
    {
      "type": "node",
      "id": 9381669623,
      "lat": 51.0644234,
      "lon": 3.7249385
    },
    {
      "type": "node",
      "id": 9381669624,
      "lat": 51.0643749,
      "lon": 3.7249073
    },
    {
      "type": "node",
      "id": 9381669625,
      "lat": 51.0643836,
      "lon": 3.7248731
    },
    {
      "type": "node",
      "id": 9381669626,
      "lat": 51.0643745,
      "lon": 3.7248673
    },
    {
      "type": "node",
      "id": 9381669627,
      "lat": 51.0643963,
      "lon": 3.7247818
    },
    {
      "type": "node",
      "id": 2082311993,
      "lat": 51.0000609,
      "lon": 3.7844373
    },
    {
      "type": "node",
      "id": 2082312002,
      "lat": 51.0000743,
      "lon": 3.7842862
    },
    {
      "type": "node",
      "id": 2082312007,
      "lat": 51.0001149,
      "lon": 3.7843486
    },
    {
      "type": "node",
      "id": 2082312017,
      "lat": 51.0001363,
      "lon": 3.7845531
    },
    {
      "type": "node",
      "id": 2082312029,
      "lat": 51.0001913,
      "lon": 3.7844626
    },
    {
      "type": "node",
      "id": 2082312051,
      "lat": 51.0002718,
      "lon": 3.7845861
    },
    {
      "type": "node",
      "id": 2082312067,
      "lat": 51.0003579,
      "lon": 3.7838202
    },
    {
      "type": "node",
      "id": 2082312103,
      "lat": 51.0004879,
      "lon": 3.784068
    },
    {
      "type": "node",
      "id": 2082312105,
      "lat": 51.000503,
      "lon": 3.7840431
    },
    {
      "type": "node",
      "id": 2082312119,
      "lat": 51.0005391,
      "lon": 3.7841467
    },
    {
      "type": "way",
      "id": 208518123,
      "nodes": [
        3368459375,
        3368459377,
        3368459379,
        3368459378,
        3368459376,
        3368459374,
        2188108126,
        2188108133,
        2188108134,
        2188108131,
        2188108128,
        2188108129,
        2188108132,
        2188108135,
        2188108136,
        2188108127,
        3368459375
      ]
    },
    {
      "type": "way",
      "id": 329902832,
      "nodes": [
        3368459370,
        3368430140,
        2188108124,
        3368459367,
        1478050328,
        1235828156,
        2188108144,
        3368430144,
        1235828153,
        1235828159,
        3368459370
      ]
    },
    {
      "type": "way",
      "id": 132801022,
      "nodes": [
        1461088537,
        1461088545,
        4255945659,
        1461088533,
        1461088544,
        1461088558,
        1461088537
      ]
    },
    {
      "type": "way",
      "id": 493483079,
      "nodes": [
        4853953513,
        4853953511,
        4853953510,
        4853953509,
        4853953508,
        4853953507,
        4853953506,
        4853953505,
        4853953504,
        4853953503,
        4853953502,
        4853953501,
        4853953500,
        4853953499,
        4853953498,
        4853953497,
        4853953496,
        4853953495,
        4853953494,
        4853953513
      ]
    },
    {
      "type": "way",
      "id": 493483080,
      "nodes": [
        4853954469,
        4853953622,
        4853954028,
        4853954044,
        4853954038,
        4853954039,
        4853954040,
        4853954100,
        4853954096,
        4853954097,
        4853954098,
        4853953621,
        4853953520,
        4853953519,
        4853953516,
        4853953515,
        4853954468,
        4853954469
      ]
    }
  ]
}